postcode,Suburb,State,lat,long
7150, Adventure Bay, TAS,-43.36,147.33
7117, Dover, TAS,-43.31,147.02
7116, Brooks Bay, TAS,-43.23,147.03
7112, Abels Bay, TAS,-43.23,147.1
7163, Flowerpot, TAS,-43.2,147.25
7162, Birchs Bay, TAS,-43.18,147.24
7182, Fortescue, TAS,-43.13,147.95
7155, Kettering, TAS,-43.13,147.25
7184, Nubeena, TAS,-43.1,147.74
7113, Franklin, TAS,-43.09,147.01
7187, Koonya, TAS,-43.06,147.81
7180, Taranna, TAS,-43.06,147.87
7185, Premaydena, TAS,-43.05,147.78
7054, Barretta, TAS,-43.05,147.26
7186, Saltwater River, TAS,-43.03,147.73
7022, South Arm, TAS,-43.03,147.42
7179, Eaglehawk Neck, TAS,-43.01,147.92
7052, Blackmans Bay, TAS,-43,147.32
7055, Huntingfield, TAS,-42.99,147.29
7051, Kingston, TAS,-42.99,147.33
7023, Opossum Bay, TAS,-42.99,147.4
7020, Clifton Beach, TAS,-42.99,147.52
7053, Bonnet Hill, TAS,-42.97,147.33
7109, Crabtree, TAS,-42.96,147.08
7050, Albion Heights, TAS,-42.96,147.32
7178, Murdunna, TAS,-42.95,147.87
7024, Cremorne, TAS,-42.95,147.52
7007, Mount Nelson, TAS,-42.92,147.32
7006, Sandy Bay, TAS,-42.91,147.34
7021, Lauderdale, TAS,-42.9,147.48
7005, Dynnyrne, TAS,-42.9,147.31
7002, North Hobart, TAS,-42.9,147.45
7019, Clarendon Vale, TAS,-42.89,147.45
7004, Battery Point, TAS,-42.89,147.33
7177, Boomer Bay, TAS,-42.87,147.83
7173, Carlton, TAS,-42.87,147.64
7170, Acton Park, TAS,-42.87,147.47
7018, Bellerive, TAS,-42.87,147.37
7008, Lenah Valley, TAS,-42.87,147.28
7000, Bathurst Street Po, TAS,-42.87,147.33
7015, Geilston Bay, TAS,-42.84,147.35
7012, Collinsvale, TAS,-42.84,147.19
7009, Derwent Park, TAS,-42.84,147.29
7001, Hobart, TAS,-42.84,147.51
7016, Risdon Vale, TAS,-42.82,147.38
7010, Dowsing Point, TAS,-42.82,147.3
7175, Bream Creek, TAS,-42.81,147.83
7171, Midway Point, TAS,-42.8,147.53
7025, Dulcot, TAS,-42.79,147.42
7176, Kellevie, TAS,-42.78,147.81
7017, Grasstree Hill, TAS,-42.78,147.36
7011, Austins Ferry, TAS,-42.77,147.24
7140, Black Hills, TAS,-42.73,147.03
7172, Nugent, TAS,-42.72,147.75
7026, Campania, TAS,-42.66,147.42
7027, Colebrook, TAS,-42.53,147.36
7030, Apsley, TAS,-42.42,147.14
7119, Stonor, TAS,-42.4,147.38
7120, Andover, TAS,-42.33,147.46
7468, Macquarie Heads, TAS,-42.22,145.2
7209, Ross, TAS,-42.21,147.78
7466, Gormanston, TAS,-42.07,145.6
7467, Lake Margaret, TAS,-42,145.54
7190, Apslawn, TAS,-41.96,148.16
7210, Campbell Town, TAS,-41.93,147.49
7304, Brandum, TAS,-41.82,146.68
7469, Granville Harbour, TAS,-41.81,145.04
7211, Cleveland, TAS,-41.81,147.42
7470, Rosebery, TAS,-41.78,145.54
7213, Avoca, TAS,-41.78,147.72
7302, Bracknell, TAS,-41.65,146.94
7214, Fingal, TAS,-41.64,147.97
7301, Bishopsbourne, TAS,-41.62,146.99
7300, Devon Hills, TAS,-41.55,147.19
7292, Hagley, TAS,-41.53,146.9
7291, Carrick, TAS,-41.53,147.01
7258, Breadalbane, TAS,-41.53,147.19
7151, Casey, TAS,-41.52,146.64
7212, Ben Lomond, TAS,-41.51,147.61
7850, Hobart, TAS,-41.5,147.17
7845, Hobart, TAS,-41.5,147.17
7829, Hobart, TAS,-41.5,147.17
7828, Hobart, TAS,-41.5,147.17
7827, Hobart, TAS,-41.5,147.17
7824, Hobart, TAS,-41.5,147.17
7823, Hobart, TAS,-41.5,147.17
7814, Hobart, TAS,-41.5,147.17
7813, Hobart, TAS,-41.5,147.17
7812, Hobart, TAS,-41.5,147.17
7811, Hobart, TAS,-41.5,147.17
7810, Hobart, TAS,-41.5,147.17
7809, Hobart, TAS,-41.5,147.17
7808, Hobart, TAS,-41.5,147.17
7807, Hobart, TAS,-41.5,147.17
7806, Hobart, TAS,-41.5,147.17
7805, Hobart, TAS,-41.5,147.17
7804, Hobart, TAS,-41.5,147.17
7803, Hobart, TAS,-41.5,147.17
7802, Hobart, TAS,-41.5,147.17
7800, Hobart, TAS,-41.5,147.17
7290, Hadspen, TAS,-41.5,147.06
7249, Kings Meadows, TAS,-41.47,147.16
7250, Blackstone Heights, TAS,-41.46,147.08
7248, Invermay, TAS,-41.42,147.13
7215, Beaumaris, TAS,-41.42,148.28
7303, Birralee, TAS,-41.38,146.83
7277, Bridgenorth, TAS,-41.38,146.97
7923, Launceston, TAS,-41.35,148.14
7922, Launceston, TAS,-41.35,148.14
7914, Launceston, TAS,-41.35,148.14
7913, Launceston, TAS,-41.35,148.14
7912, Launceston, TAS,-41.35,148.14
7911, Launceston, TAS,-41.35,148.14
7910, Launceston, TAS,-41.35,148.14
7909, Launceston, TAS,-41.35,148.14
7908, Launceston, TAS,-41.35,148.14
7907, Launceston, TAS,-41.35,148.14
7906, Launceston, TAS,-41.35,148.14
7905, Launceston, TAS,-41.35,148.14
7904, Launceston, TAS,-41.35,148.14
7903, Launceston, TAS,-41.35,148.14
7902, Launceston, TAS,-41.35,148.14
7901, Launceston, TAS,-41.35,148.14
7305, Merseylea, TAS,-41.34,146.47
7275, Blackwall, TAS,-41.31,146.97
7216, Akaroa, TAS,-41.3,148.32
7263, Alberton, TAS,-41.29,147.79
7259, Myrtle Bank, TAS,-41.29,147.35
7306, Acacia Hills, TAS,-41.28,146.32
7276, Gravelly Beach, TAS,-41.28,146.98
7268, Lilydale, TAS,-41.25,147.22
7310, Aberdeen, TAS,-41.24,146.32
7267, Bangor, TAS,-41.22,147.14
7315, Abbotsham, TAS,-41.21,146.18
7307, Bakers Beach, TAS,-41.19,146.61
7316, Camena, TAS,-41.17,145.97
7261, Branxholm, TAS,-41.17,147.74
7260, Blumont, TAS,-41.15,147.41
7253, Bell Bay, TAS,-41.13,146.87
7270, Badger Head, TAS,-41.1,146.67
7325, Calder, TAS,-41.07,145.63
7320, Acton, TAS,-41.07,145.89
7322, Somerset, TAS,-41.04,145.83
7252, Beechford, TAS,-41.03,146.95
7265, Banca, TAS,-41.02,147.8
7254, Bellingham, TAS,-41.02,147.17
7262, Bridport, TAS,-41,147.39
7330, Alcomie, TAS,-40.93,145.19
7264, Ansons Bay, TAS,-40.89,147.88
7321, Black River, TAS,-40.85,145.31
7331, Stanley, TAS,-40.79,145.27
7257, Cape Barren Island, TAS,-40.39,148.23
7255, Blue Rocks, TAS,-40.04,147.95
7256, Bungaree, TAS,-39.78,143.9
3238, Glenaire, VIC,-38.78,143.43
3233, Apollo Bay, VIC,-38.75,143.67
3965, Port Welshpool, VIC,-38.69,146.45
3959, Fish Creek, VIC,-38.69,146.08
3237, Aire Valley, VIC,-38.69,143.56
3964, Port Franklin, VIC,-38.68,146.27
3962, Agnes, VIC,-38.67,146.4
3960, Bennison, VIC,-38.67,146.27
3958, Buffalo, VIC,-38.64,146.07
3996, Inverloch, VIC,-38.63,145.73
3269, Port Campbell, VIC,-38.62,143
3971, Alberton, VIC,-38.61,146.67
3966, Binginwarri, VIC,-38.58,146.45
3270, Peterborough, VIC,-38.58,142.86
3239, Carlisle River, VIC,-38.56,143.4
3954, Koonwarra, VIC,-38.55,145.95
3925, Cape Woolamai, VIC,-38.54,145.34
3995, Anderson, VIC,-38.53,145.45
3956, Dumbalk, VIC,-38.53,146.1
3236, Forrest, VIC,-38.52,143.71
3232, Lorne, VIC,-38.52,144
3992, Blackwood Forest, VIC,-38.49,145.62
3991, Bass, VIC,-38.48,145.47
3929, Flinders, VIC,-38.47,145.02
3243, Barwon Downs, VIC,-38.47,143.76
3235, Benwerrin, VIC,-38.47,143.93
3923, Rhyll, VIC,-38.46,145.31
3231, Aireys Inlet, VIC,-38.46,144.11
3990, Glen Forbes, VIC,-38.45,145.53
3950, Kardella South, VIC,-38.45,145.88
3922, Cowes, VIC,-38.45,145.24
3267, Scotts Creek, VIC,-38.45,143.11
3979, Almurta, VIC,-38.43,145.56
3946, Bena, VIC,-38.43,145.72
3850, Sale, VIC,-38.42,147.08
3268, Ayrford, VIC,-38.42,142.86
3953, Berrys Creek, VIC,-38.41,146.07
3844, Blackwarry, VIC,-38.41,146.64
3230, Anglesea, VIC,-38.41,144.19
3939, Boneo, VIC,-38.4,144.9
3928, Main Ridge, VIC,-38.4,144.97
3869, Jumbuk, VIC,-38.4,146.42
3951, Arawata, VIC,-38.39,145.89
3916, Merricks, VIC,-38.39,145.09
3277, Allansford, VIC,-38.39,142.59
3927, Somers, VIC,-38.38,145.15
3874, Cherrilong, VIC,-38.38,146.79
3870, Boolarra, VIC,-38.38,146.28
3750, Wollert, VIC,-38.38,144.81
8399, Melbourne, VIC,-38.37,144.77
8396, Melbourne, VIC,-38.37,144.77
8394, Melbourne, VIC,-38.37,144.77
8393, Melbourne, VIC,-38.37,144.77
8390, Melbourne, VIC,-38.37,144.77
8388, Melbourne, VIC,-38.37,144.77
8386, Melbourne, VIC,-38.37,144.77
8383, Melbourne, VIC,-38.37,144.77
8205, Melbourne, VIC,-38.37,144.77
8120, Melbourne, VIC,-38.37,144.77
8111, Melbourne, VIC,-38.37,144.77
8108, Melbourne, VIC,-38.37,144.77
8107, Melbourne, VIC,-38.37,144.77
8103, Melbourne, VIC,-38.37,144.77
8102, Melbourne, VIC,-38.37,144.77
8071, Melbourne, VIC,-38.37,144.77
8070, Melbourne, VIC,-38.37,144.77
8069, Melbourne, VIC,-38.37,144.77
8066, Melbourne, VIC,-38.37,144.77
8061, Melbourne, VIC,-38.37,144.77
8060, Melbourne, VIC,-38.37,144.77
8051, Melbourne, VIC,-38.37,144.77
8045, Melbourne, VIC,-38.37,144.77
8001, Melbourne, VIC,-38.37,144.77
3941, Rye, VIC,-38.37,144.82
3937, Red Hill, VIC,-38.37,145.01
3926, Balnarring, VIC,-38.37,145.13
3919, Crib Point, VIC,-38.37,145.2
3241, Bambra, VIC,-38.37,143.95
3001, Melbourne, VIC,-38.37,144.77
3942, Blairgowrie, VIC,-38.36,144.77
3280, Dennington, VIC,-38.36,142.44
3936, Arthurs Seat, VIC,-38.35,144.95
3944, Portsea, VIC,-38.34,144.71
3943, Sorrento, VIC,-38.34,144.74
3921, French Island, VIC,-38.34,145.34
3918, Bittern, VIC,-38.34,145.18
3266, Bullaharre, VIC,-38.34,143.14
3250, Colac, VIC,-38.34,143.58
3987, Nyora, VIC,-38.33,145.67
3835, Thorpdale, VIC,-38.33,146.12
3282, Illowa, VIC,-38.33,142.41
3281, Bushfield, VIC,-38.33,142.51
3228, Bellbrae, VIC,-38.33,144.26
3984, Adams Estate, VIC,-38.32,145.54
3842, Churchill, VIC,-38.32,146.42
3915, Hastings, VIC,-38.31,145.19
3283, Crossley, VIC,-38.31,142.33
3242, Birregurra, VIC,-38.31,143.79
3934, Mount Martha, VIC,-38.3,144.99
3824, Childers, VIC,-38.3,146.11
3275, Mailors Flat, VIC,-38.3,142.46
3254, Cororooke, VIC,-38.3,143.52
3988, Mountain View, VIC,-38.29,145.89
3873, Gormandale, VIC,-38.29,146.72
3871, Allambee Reserve, VIC,-38.29,146.05
3225, Point Lonsdale, VIC,-38.29,144.61
3840, Driffield, VIC,-38.28,146.32
3278, Purnim, VIC,-38.28,142.62
3227, Barwon Heads, VIC,-38.28,144.49
3785, Tremont, VIC,-38.27,144.49
3305, Allestree, VIC,-38.27,141.65
3285, Codrington, VIC,-38.27,141.97
3226, Ocean Grove, VIC,-38.27,144.54
3913, Tyabb, VIC,-38.26,145.19
3847, Hiamdale, VIC,-38.26,146.75
3823, Allambee, VIC,-38.26,146.03
3933, Moorooduc, VIC,-38.24,145.09
3931, Mornington, VIC,-38.24,145.06
3822, Cloverlea, VIC,-38.24,146
3818, Athlone, VIC,-38.24,145.78
3264, Terang, VIC,-38.24,142.91
3249, Alvie, VIC,-38.24,143.48
3240, Buckley, VIC,-38.22,144.08
3980, Blind Bight, VIC,-38.21,145.34
3977, Botanic Ridge, VIC,-38.21,145.32
3820, Bona Vista, VIC,-38.21,145.96
3284, Orford, VIC,-38.21,142.15
3279, Ballangeich, VIC,-38.21,142.66
3265, Boorcan, VIC,-38.21,143.01
3912, Pearcedale, VIC,-38.2,145.23
3911, Baxter, VIC,-38.2,145.16
3661, Seymour, VIC,-38.2,146.54
3217, Deakin University, VIC,-38.2,144.3
8010, Law Courts, VIC,-38.19,146.29
3930, Kunyung, VIC,-38.19,145.08
3251, Beeac, VIC,-38.19,143.64
3981, Bayles, VIC,-38.18,145.57
3224, Leopold, VIC,-38.18,144.46
3220, Bareena, VIC,-38.18,145.11
3219, Breakwater, VIC,-38.18,144.38
3216, Belmont, VIC,-38.18,144.34
3111, Donvale, VIC,-38.18,144.47
3200, Frankston North, VIC,-38.17,145.19
3222, Clifton Springs, VIC,-38.16,144.56
3978, Cardinia, VIC,-38.15,145.42
3910, Langwarrin, VIC,-38.15,145.19
3814, Cora Lynn, VIC,-38.15,145.61
3304, Bessiebelle, VIC,-38.15,141.97
3199, Frankston, VIC,-38.15,145.12
3223, Indented Head, VIC,-38.14,144.71
3218, Geelong West, VIC,-38.14,144.35
3260, Bookaar, VIC,-38.13,143.1
3854, Glengarry, VIC,-38.12,146.57
8002, East Melbourne, VIC,-38.11,145.15
3852, East Sale, VIC,-38.11,147.13
3321, Hesse, VIC,-38.11,143.86
3287, Hawkesdale, VIC,-38.11,142.32
3215, Bell Park, VIC,-38.11,144.33
3198, Belvedere Park, VIC,-38.11,145.16
3853, Sale, VIC,-38.1,146.06
3821, Brandy Creek, VIC,-38.1,145.92
3815, Bunyip, VIC,-38.1,145.72
3813, Tynong, VIC,-38.09,145.63
3201, Carrum Downs, VIC,-38.09,145.19
3810, Pakenham, VIC,-38.08,145.49
3272, Mortlake, VIC,-38.08,142.81
3197, Carrum, VIC,-38.08,145.12
3856, Toongabbie, VIC,-38.07,146.67
3214, Corio, VIC,-38.07,144.36
3809, Officer, VIC,-38.06,145.41
3273, Hexham, VIC,-38.06,142.61
3196, Bonbeach, VIC,-38.06,145.12
3975, Lynbrook, VIC,-38.05,145.26
3816, Labertouche, VIC,-38.05,145.83
3807, Beaconsfield, VIC,-38.05,145.37
3331, Bannockburn, VIC,-38.05,144.17
3292, Nelson, VIC,-38.05,141.01
3851, Airly, VIC,-38.04,147.08
3812, Maryknoll, VIC,-38.04,145.61
3328, Teesdale, VIC,-38.04,144.05
3276, Minjah, VIC,-38.04,142.44
3976, Hampton Park, VIC,-38.03,145.27
3806, Berwick, VIC,-38.03,145.34
3322, Cressy, VIC,-38.03,143.64
3303, Breakaway Creek, VIC,-38.03,141.81
3195, Aspendale, VIC,-38.03,145.1
3175, Bangholme, VIC,-38.03,145.18
3161, Caulfield Junction, VIC,-38.03,145.31
3805, Fountain Gate, VIC,-38.02,145.3
3329, Barunah Park, VIC,-38.02,143.86
3212, Avalon, VIC,-38.02,144.41
3164, Dandenong South, VIC,-38.02,145.24
5291, Allendale East, SA,-38,140.71
3857, Cowwarr, VIC,-38,146.69
3808, Beaconsfield Upper, VIC,-38,145.41
3803, Hallam, VIC,-38,145.27
3271, Darlington, VIC,-38,143.05
3177, Doveton, VIC,-38,145.24
3938, Mccrae, VIC,-37.99,145.22
3323, Berrybank, VIC,-37.99,143.49
3193, Beaumaris, VIC,-37.99,145.03
3173, Keysborough, VIC,-37.99,145.15
3802, Endeavour Hills, VIC,-37.98,145.25
3194, Mentone, VIC,-37.98,145.06
3945, Jeetho, VIC,-37.97,145.16
3858, Arbuckle, VIC,-37.97,146.69
3804, Narre Warren East, VIC,-37.97,145.36
3502, Mildura, VIC,-37.97,145.26
3286, Condah Swamp, VIC,-37.97,141.83
3211, Little River, VIC,-37.97,144.53
3202, Heatherton, VIC,-37.97,145.21
3174, Noble Park, VIC,-37.97,145.18
3172, Dingley Village, VIC,-37.97,145.12
3030, Cocoroc, VIC,-37.97,144.58
3831, Neerim, VIC,-37.96,145.99
3332, Lethbridge, VIC,-37.96,144.14
3192, Cheltenham, VIC,-37.96,145.06
3783, Gembrook, VIC,-37.95,145.55
3325, Derrinallum, VIC,-37.95,143.22
3324, Lismore, VIC,-37.95,143.34
3191, Sandringham, VIC,-37.95,145.01
3190, Highett, VIC,-37.95,145.03
3171, Sandown Village, VIC,-37.95,145.16
3957, Stony Creek, VIC,-37.94,145.27
3781, Cockatoo, VIC,-37.94,145.49
3169, Clarinda, VIC,-37.94,145.1
3889, Bellbird Creek, VIC,-37.93,145.91
3205, South Melbourne, VIC,-37.93,145.03
3189, Moorabbin, VIC,-37.93,145.04
3188, Hampton, VIC,-37.93,145.03
3178, Rowville, VIC,-37.93,145.24
3168, Clayton, VIC,-37.93,145.12
3167, Oakleigh South, VIC,-37.93,145.1
3165, Bentleigh East, VIC,-37.93,145.06
3880, Boole Poole, VIC,-37.92,147.69
3782, Avonsleigh, VIC,-37.92,145.47
3333, Bamganie, VIC,-37.92,144.03
3204, Bentleigh, VIC,-37.92,145.04
3159, Menzies Creek, VIC,-37.92,145.4
3832, Nayook, VIC,-37.91,145.93
3800, Monash University, VIC,-37.91,145.13
3274, Caramut, VIC,-37.91,142.52
3186, Brighton, VIC,-37.91,144.99
3160, Belgrave, VIC,-37.91,145.36
3051, Hotham Hill, VIC,-37.91,145.06
3791, Kallista, VIC,-37.9,145.41
3289, Gazette, VIC,-37.9,142.17
3221, Anakie, VIC,-37.9,144.25
3187, Brighton East, VIC,-37.9,145
3166, Hughesdale, VIC,-37.9,145.08
3158, Upwey, VIC,-37.9,145.33
3024, Mambourin, VIC,-37.9,144.56
3878, Eagle Point, VIC,-37.89,147.67
3859, Maffra West Upper, VIC,-37.89,146.85
3792, The Patch, VIC,-37.89,145.39
3180, Knoxfield, VIC,-37.89,145.25
3163, Booran Road Po, VIC,-37.89,145.06
3148, Chadstone, VIC,-37.89,145.08
3860, Boisdale, VIC,-37.88,146.99
3789, Sherbrooke, VIC,-37.88,145.36
3787, Sassafras, VIC,-37.88,145.37
3786, Ferny Creek, VIC,-37.88,145.34
3300, Byaduk North, VIC,-37.88,141.96
3185, Elsternwick, VIC,-37.88,145
3184, Brighton Road, VIC,-37.88,145
3162, Caulfield, VIC,-37.88,145.03
3156, Ferntree Gully, VIC,-37.88,145.3
3150, Brandon Park, VIC,-37.88,145.17
3149, Mount Waverley, VIC,-37.88,145.13
3145, Caulfield East, VIC,-37.88,145.04
3029, Hoppers Crossing, VIC,-37.88,144.7
3904, Metung, VIC,-37.87,147.85
3793, Monbulk, VIC,-37.87,145.41
3183, Balaclava, VIC,-37.87,145
3182, St Kilda, VIC,-37.87,144.98
3170, Mulgrave, VIC,-37.87,145.1
3152, Knox City Centre, VIC,-37.87,145.24
3028, Altona Meadows, VIC,-37.87,144.78
3018, Altona, VIC,-37.87,144.83
3909, Kalimna, VIC,-37.86,147.92
3864, Fernbank, VIC,-37.86,147.34
3797, Gilderoy, VIC,-37.86,145.71
3788, Olinda, VIC,-37.86,145.36
3302, Branxholme, VIC,-37.86,141.79
3179, Scoresby, VIC,-37.86,145.26
3155, Boronia, VIC,-37.86,145.28
3151, Burwood East, VIC,-37.86,145.14
3147, Ashburton, VIC,-37.86,145.08
3143, Armadale, VIC,-37.86,145.02
3027, Williams Landing, VIC,-37.86,144.76
3016, Williamstown, VIC,-37.86,144.9
8873, Port Melbourne, VIC,-37.85,144.89
3181, Prahran, VIC,-37.85,144.99
3154, The Basin, VIC,-37.85,145.31
3146, Glen Iris, VIC,-37.85,145.07
8627, Camberwell, VIC,-37.84,145.06
8004, St Kilda Road, VIC,-37.84,144.98
3887, Lake Tyers, VIC,-37.84,148.12
3833, Ada, VIC,-37.84,145.85
3795, Silvan, VIC,-37.84,145.41
3767, Mount Dandenong, VIC,-37.84,145.36
3330, Rokewood, VIC,-37.84,143.68
3206, Albert Park, VIC,-37.84,144.96
3153, Bayswater, VIC,-37.84,145.27
3144, Kooyong, VIC,-37.84,145.03
3142, Hawksburn, VIC,-37.84,145
3133, Vermont, VIC,-37.84,145.19
3131, Brentford Square, VIC,-37.84,145.18
3126, Camberwell East, VIC,-37.84,145.09
3125, Bennettswood, VIC,-37.84,145.12
3122, Auburn South, VIC,-37.84,145.05
3026, Laverton North, VIC,-37.84,144.8
3025, Altona East, VIC,-37.84,144.86
3015, Newport, VIC,-37.84,144.88
3004, Melbourne, VIC,-37.84,144.98
5290, Mount Gambier, SA,-37.83,140.78
3875, Bairnsdale, VIC,-37.83,147.63
3552, Bendigo, VIC,-37.83,145.01
3207, Garden City, VIC,-37.83,144.96
3123, Auburn, VIC,-37.83,145.04
3121, Burnley, VIC,-37.83,145.01
8009, Flinders Lane, VIC,-37.82,144.96
8005, World Trade Centre, VIC,-37.82,144.95
3882, Nicholson, VIC,-37.82,147.73
3766, Kalorama, VIC,-37.82,145.37
3135, Bedford Road, VIC,-37.82,145.25
3132, Mitcham, VIC,-37.82,145.19
3130, Blackburn, VIC,-37.82,145.15
3128, Box Hill, VIC,-37.82,145.12
3127, Mont Albert, VIC,-37.82,145.1
3124, Camberwell, VIC,-37.82,145.06
3013, Yarraville, VIC,-37.82,144.89
3006, South Wharf, VIC,-37.82,144.97
3005, World Trade Centre, VIC,-37.82,144.95
3002, East Melbourne, VIC,-37.82,144.99
8011, Little Lonsdale Street, VIC,-37.81,144.96
8006, Abeckett Street, VIC,-37.81,144.96
3903, Swan Reach, VIC,-37.81,147.84
3765, Montrose, VIC,-37.81,145.34
3134, Heathwood, VIC,-37.81,145.23
3109, Doncaster East, VIC,-37.81,145.19
3103, Balwyn, VIC,-37.81,145.08
3101, Cotham, VIC,-37.81,145.04
3012, Brooklyn, VIC,-37.81,144.85
3008, Docklands, VIC,-37.81,144.95
3003, West Melbourne, VIC,-37.81,144.94
3000, Melbourne, VIC,-37.81,144.97
3865, Lindenow, VIC,-37.8,147.46
3139, Beenak, VIC,-37.8,145.54
3137, Kilsyth, VIC,-37.8,145.31
3136, Croydon, VIC,-37.8,145.28
3129, Box Hill North, VIC,-37.8,145.13
3102, Kew East, VIC,-37.8,145.05
3067, Abbotsford, VIC,-37.8,145
3066, Collingwood, VIC,-37.8,144.98
3065, Fitzroy, VIC,-37.8,144.98
3052, Melbourne University, VIC,-37.8,144.96
3050, Royal Melbourne Hospital, VIC,-37.8,144.96
3011, Footscray, VIC,-37.8,144.9
3010, University Of Melbourne, VIC,-37.8,144.96
3902, Bumberrah, VIC,-37.79,147.83
3796, Mount Evelyn, VIC,-37.79,145.38
3309, Digby, VIC,-37.79,141.5
3104, Balwyn North, VIC,-37.79,145.07
3068, Clifton Hill, VIC,-37.79,144.99
3031, Flemington, VIC,-37.79,144.93
3361, Bradvale, VIC,-37.78,143.41
3353, Ballarat, VIC,-37.78,144.84
3114, Park Orchards, VIC,-37.78,145.21
3108, Doncaster, VIC,-37.78,145.12
3078, Alphington, VIC,-37.78,145.03
3054, Carlton North, VIC,-37.78,144.97
3053, Carlton, VIC,-37.78,144.97
3032, Ascot Vale, VIC,-37.78,144.92
3022, Ardeer, VIC,-37.78,144.8
3020, Albion, VIC,-37.78,144.82
3019, Braybrook, VIC,-37.78,144.86
3351, Berringa, VIC,-37.77,143.68
3138, Mooroolbark, VIC,-37.77,145.33
3106, Templestowe, VIC,-37.77,145.12
3105, Bulleen, VIC,-37.77,145.08
3079, Ivanhoe, VIC,-37.77,145.04
3070, Northcote, VIC,-37.77,145
3055, Brunswick South, VIC,-37.77,144.94
3039, Moonee Ponds, VIC,-37.77,144.92
8576, Ivanhoe, VIC,-37.76,145.04
3799, Big Pats Creek, VIC,-37.76,145.75
3140, Lilydale, VIC,-37.76,145.35
3107, Templestowe Lower, VIC,-37.76,145.1
3071, Thornbury, VIC,-37.76,145
3060, Fawkner, VIC,-37.76,144.9
3057, Brunswick East, VIC,-37.76,144.98
3056, Brunswick, VIC,-37.76,144.94
3040, Aberfeldie, VIC,-37.76,144.9
3116, Chirnside Park, VIC,-37.75,145.33
3081, Bellfield, VIC,-37.75,145.05
3023, Burnside, VIC,-37.75,144.75
3021, Albanvale, VIC,-37.75,144.77
3886, Newmerella, VIC,-37.74,148.43
3115, Wonga Park, VIC,-37.74,145.27
3084, Banyule, VIC,-37.74,145.09
3072, Gilberton, VIC,-37.74,145.03
3041, Essendon Fields, VIC,-37.74,144.91
3034, Avondale Heights, VIC,-37.74,144.82
3033, Keilor East, VIC,-37.74,144.8
3113, North Warrandyte, VIC,-37.73,145.22
3093, Lower Plenty, VIC,-37.73,145.09
3085, Macleod, VIC,-37.73,145.07
3058, Batman, VIC,-37.73,144.96
3044, Pascoe Vale, VIC,-37.73,144.94
3038, Keilor Downs, VIC,-37.73,144.81
3770, Coldstream, VIC,-37.72,145.38
3310, Merino, VIC,-37.72,141.55
3094, Montmorency, VIC,-37.72,145.12
3086, La Trobe University, VIC,-37.72,145.05
3037, Calder Park, VIC,-37.72,144.78
3036, Keilor, VIC,-37.72,144.83
3885, Brumby, VIC,-37.71,147.83
3334, Bungal, VIC,-37.71,144.09
3095, Eltham, VIC,-37.71,145.15
3088, Briar Hill, VIC,-37.71,145.12
3087, Watsonia, VIC,-37.71,145.08
3042, Airport West, VIC,-37.71,144.89
3825, Aberfeldy, VIC,-37.7,146.36
3338, Brookfield, VIC,-37.7,144.54
3301, Bochara, VIC,-37.7,141.93
3097, Bend Of Islands, VIC,-37.7,145.28
3083, Bundoora, VIC,-37.7,145.07
3046, Glenroy, VIC,-37.7,144.92
3967, Hedley, VIC,-37.69,144.96
3777, Badger Creek, VIC,-37.69,145.54
3751, Woodstock, VIC,-37.69,144.89
3360, Happy Valley, VIC,-37.69,143.56
3335, Plumpton, VIC,-37.69,144.69
3073, Keon Park, VIC,-37.69,145.01
3043, Gladstone Park, VIC,-37.69,144.88
3689, Wodonga, VIC,-37.68,144.99
3340, Bacchus Marsh, VIC,-37.68,144.44
3337, Kurunjang, VIC,-37.68,144.59
3074, Thomastown, VIC,-37.68,145.01
3047, Broadmeadows, VIC,-37.68,144.92
3096, Wattle Glen, VIC,-37.67,145.19
3090, Plenty, VIC,-37.67,145.12
3082, Mill Park, VIC,-37.67,145.06
3075, Lalor, VIC,-37.67,145.02
3049, Attwood, VIC,-37.67,144.89
3045, Melbourne Airport, VIC,-37.67,144.83
3619, Kyabram, VIC,-37.66,144.94
3775, Christmas Hills, VIC,-37.65,145.32
3752, Morang South, VIC,-37.65,145.1
3357, Buninyong, VIC,-37.65,143.92
3294, Dunkeld, VIC,-37.65,142.34
3048, Coolaroo, VIC,-37.65,144.93
3759, Panton Hill, VIC,-37.64,145.24
3428, Bulla, VIC,-37.64,144.8
3312, Bahgallah, VIC,-37.64,141.37
3293, Glenthompson, VIC,-37.64,142.55
3091, Yarrambat, VIC,-37.64,145.13
3089, Diamond Creek, VIC,-37.64,145.22
3076, Epping, VIC,-37.64,145.01
3062, Somerton, VIC,-37.64,144.94
3061, Campbellfield, VIC,-37.64,144.95
3059, Greenvale, VIC,-37.64,144.89
3778, Fernshaw, VIC,-37.63,145.7
3427, Diggers Rest, VIC,-37.63,144.72
3063, Oaklands Junction, VIC,-37.63,144.84
5279, Koorine, SA,-37.62,140.65
3760, Smiths Gully, VIC,-37.62,145.29
3754, Doreen, VIC,-37.62,145.15
3342, Ballan, VIC,-37.6,144.23
3064, Craigieburn, VIC,-37.6,144.94
3893, Double Bridges, VIC,-37.59,147.89
3356, Delacombe, VIC,-37.59,143.83
3345, Gordon, VIC,-37.59,144.1
3314, Bulart, VIC,-37.59,141.94
3099, Arthurs Creek, VIC,-37.59,145.22
3429, Sunbury, VIC,-37.58,144.73
3311, Casterton, VIC,-37.58,141.41
3862, Budgee Budgee, VIC,-37.57,147.19
3755, Yan Yean, VIC,-37.57,145.14
5278, Kalangadoo, SA,-37.56,140.7
3779, Cambarville, VIC,-37.56,145.89
3354, Bakery Hill, VIC,-37.56,143.87
3350, Alfredton, VIC,-37.56,143.82
3892, Mallacoota, VIC,-37.55,149.73
3355, Lake Gardens, VIC,-37.55,143.82
3379, Bornes Hill, VIC,-37.53,142.52
3378, Tatyoon, VIC,-37.53,142.94
3437, Bullengarook, VIC,-37.52,144.48
3341, Dales Creek, VIC,-37.52,144.31
5280, Beachport, SA,-37.48,140.01
3891, Genoa, VIC,-37.48,149.59
3763, Kinglake, VIC,-37.48,145.28
3430, Clarkefield, VIC,-37.48,144.75
3753, Beveridge, VIC,-37.47,145
3438, New Gisborne, VIC,-37.46,144.6
3431, Riddells Creek, VIC,-37.46,144.67
3757, Eden Park, VIC,-37.45,145.11
3458, Barrys Reef, VIC,-37.45,144.29
3315, Brit Brit, VIC,-37.44,141.76
3432, Bolinda, VIC,-37.43,144.78
3375, Ballyrogan, VIC,-37.43,143.13
3373, Beaufort, VIC,-37.43,143.38
3711, Buxton, VIC,-37.42,145.71
3363, Creswick, VIC,-37.42,143.89
3756, Chintin, VIC,-37.4,144.8
3441, Mount Macedon, VIC,-37.4,144.59
3440, Macedon, VIC,-37.4,144.59
3461, Bullarto, VIC,-37.39,144.22
3442, Ashbourne, VIC,-37.39,144.45
3434, Cherokee, VIC,-37.39,144.64
3758, Heathcote Junction, VIC,-37.38,145.03
3352, Addington, VIC,-37.38,143.67
3364, Allendale, VIC,-37.37,143.94
3717, Flowerdale, VIC,-37.34,145.29
3712, Rubicon, VIC,-37.33,145.86
3764, Forbes, VIC,-37.31,144.89
3460, Basalt, VIC,-37.31,144.09
3895, Doctors Flat, VIC,-37.3,147.75
5263, Coonawarra, SA,-37.29,140.84
3370, Clunes, VIC,-37.29,143.79
3377, Ararat, VIC,-37.28,142.93
5276, Bray, SA,-37.27,139.95
3890, Buldah, VIC,-37.27,149.14
5272, Coles, SA,-37.26,140.61
3714, Acheron, VIC,-37.25,145.7
3407, Balmoral, VIC,-37.25,141.84
5277, Comaum, SA,-37.23,140.93
3713, Eildon, VIC,-37.23,145.91
3658, Broadford, VIC,-37.2,145.05
3446, Drummond North, VIC,-37.2,144.29
3435, Benloch, VIC,-37.19,144.69
3469, Elmhurst, VIC,-37.18,143.25
3468, Amphitheatre, VIC,-37.18,143.4
3402, Horsham, VIC,-37.16,142.67
3380, Stawell, VIC,-37.16,142.7
3888, Bendoc, VIC,-37.15,148.88
3371, Amherst, VIC,-37.15,143.67
5271, Bool Lagoon, SA,-37.14,140.72
3718, Molesworth, VIC,-37.13,145.53
3659, Tallarook, VIC,-37.13,145.02
3522, Glenhope East, VIC,-37.13,144.75
3447, Taradale, VIC,-37.13,144.36
3521, Pyalong, VIC,-37.12,144.88
3317, Harrow, VIC,-37.12,141.6
3896, Bindi, VIC,-37.11,147.81
3462, Green Gully, VIC,-37.11,144.1
3448, Elphinstone, VIC,-37.11,144.34
2551, Boydtown, NSW,-37.1,149.88
3660, Caveat, VIC,-37.09,145.5
3467, Avoca, VIC,-37.09,143.47
3444, Barfold, VIC,-37.09,144.51
3465, Adelaide Lead, VIC,-37.07,143.68
3450, Castlemaine, VIC,-37.06,144.22
3724, Mansfield, VIC,-37.05,146.08
3451, Barkers Creek, VIC,-37.03,144.24
3898, Anglers Rest, VIC,-37.02,147.47
3720, Bonnie Doon, VIC,-37.02,145.86
3722, Barwite, VIC,-37.01,146.22
3719, Gobur, VIC,-37.01,145.62
3464, Carisbrook, VIC,-37.01,143.8
3453, Harcourt, VIC,-37,144.26
3318, Charam, VIC,-36.99,141.51
3141, Chapel Street North, VIC,-36.99,144.06
3737, Abbeyard, VIC,-36.98,146.78
3463, Baringhup, VIC,-36.98,143.95
3384, Barkly, VIC,-36.98,143.2
3715, Ancona, VIC,-36.97,145.79
3319, Apsley, VIC,-36.97,141.08
3900, Benambra, VIC,-36.95,147.7
3663, Mangalore, VIC,-36.94,145.16
3523, Argyle, VIC,-36.94,144.73
3381, Bellellen, VIC,-36.94,143.21
2633, Corrowong, NSW,-36.93,148.83
3472, Bet Bet, VIC,-36.92,143.76
3385, Dadswells Bridge, VIC,-36.92,142.51
2549, Bald Hills, NSW,-36.91,149.85
3723, Archerton, VIC,-36.89,146.26
3664, Avenel, VIC,-36.89,145.23
2548, Berrambool, NSW,-36.88,149.92
3607, Tabilk, VIC,-36.85,145.2
3555, Big Hill, VIC,-36.83,144.23
3475, Archdale, VIC,-36.83,143.5
3740, Buckland, VIC,-36.82,146.85
3665, Locksley, VIC,-36.82,145.36
2632, Bibbenluke, NSW,-36.82,149.28
3699, Bogong, VIC,-36.81,147.22
5262, Binnum, SA,-36.8,140.93
5275, Blackford, SA,-36.78,140.02
3409, Arapiles, VIC,-36.78,141.76
3550, Bendigo, VIC,-36.76,144.28
3744, Wandiligong, VIC,-36.75,146.98
3733, Whitfield, VIC,-36.75,146.41
3412, Goroke, VIC,-36.75,141.47
3515, Marong, VIC,-36.74,144.13
2631, Ando, NSW,-36.74,149.26
3741, Bright, VIC,-36.73,146.96
3556, California Gully, VIC,-36.73,144.26
3666, Balmattum, VIC,-36.71,145.64
3413, Minimay, VIC,-36.71,141.18
3400, Horsham, VIC,-36.71,142.2
3739, Eurobin, VIC,-36.7,146.85
3669, Boho, VIC,-36.7,145.77
3608, Bailieston, VIC,-36.7,145.03
3551, Arnold, VIC,-36.69,143.87
3697, Tawonga, VIC,-36.67,147.21
3387, Bolangum, VIC,-36.67,142.87
3557, Barnadown, VIC,-36.65,144.51
2550, Angledale, NSW,-36.64,149.86
3738, Ovens, VIC,-36.61,146.79
3670, Baddaginnie, VIC,-36.59,145.86
3612, Moora, VIC,-36.59,144.95
3516, Bridgewater, VIC,-36.59,143.92
3732, Moyhu, VIC,-36.58,146.38
5268, Bangham, SA,-36.57,140.94
3388, Banyena, VIC,-36.57,142.82
3672, Benalla, VIC,-36.55,145.99
3632, Shepparton, VIC,-36.54,145.6
3631, Arcadia, VIC,-36.54,145.36
3610, Dhurringile, VIC,-36.54,145.28
3478, Dooboobetic, VIC,-36.54,142.92
3701, Dartmouth, VIC,-36.53,147.5
3559, Avonmore, VIC,-36.53,144.6
3735, Bowmans Forest, VIC,-36.52,146.58
3678, Bobinawarrah, VIC,-36.52,146.5
2625, Thredbo, NSW,-36.51,148.3
3518, Berrimal, VIC,-36.5,143.46
3558, Burnewang, VIC,-36.49,144.71
3614, Toolamba, VIC,-36.48,145.26
3570, Auchmore, VIC,-36.47,144.11
3736, Myrtleford, VIC,-36.46,146.48
3623, Carag Carag, VIC,-36.46,144.9
3401, Blackheath, VIC,-36.46,142.31
3392, Boolite, VIC,-36.46,142.59
3390, Kewell, VIC,-36.45,142.42
3624, Girgarre, VIC,-36.44,145.07
2628, Avonside, NSW,-36.44,148.7
2627, Crackenback, NSW,-36.44,148.51
3673, Broken Creek, VIC,-36.43,145.89
3617, Byrneside, VIC,-36.42,145.15
3616, Cooma, VIC,-36.42,145.07
3749, Bruarong, VIC,-36.41,146.86
3647, Dookie College, VIC,-36.4,145.7
3671, Benalla, VIC,-36.39,145.42
3629, Ardmona, VIC,-36.38,145.3
3419, Kaniva, VIC,-36.38,141.24
3415, Miram, VIC,-36.38,141.36
3618, Merrigum, VIC,-36.37,145.17
3571, Dingee, VIC,-36.37,144.23
2630, Arable, NSW,-36.37,148.95
3747, Beechworth, VIC,-36.36,146.69
3630, Branditt, VIC,-36.36,145.4
3572, Milloo, VIC,-36.36,144.38
3420, Lillimur, VIC,-36.36,141.12
2546, Akolele, NSW,-36.36,150.08
3677, Wangaratta, VIC,-36.35,146.3
5270, Buckingham, SA,-36.34,140.55
3676, Wangaratta, VIC,-36.34,146.34
3646, Dookie, VIC,-36.33,145.69
3520, Kinypanial, VIC,-36.33,143.84
3393, Aubrey, VIC,-36.33,142.36
3725, Boxwood, VIC,-36.32,145.8
3620, Kyabram, VIC,-36.31,145.05
3746, Eldorado, VIC,-36.3,146.58
3695, Charleroi, VIC,-36.3,147.14
3633, Congupna, VIC,-36.3,145.48
3573, Calivil, VIC,-36.3,144.09
3561, Ballendella, VIC,-36.3,144.67
3517, Bears Lagoon, VIC,-36.3,143.92
3414, Antwerp, VIC,-36.3,142.02
5269, Custon, SA,-36.28,140.91
3726, Bungeet, VIC,-36.28,146.06
3707, Biggara, VIC,-36.28,148.03
3691, Allans Flat, VIC,-36.28,146.91
3675, Boweya, VIC,-36.27,146.13
3621, Kyvalley, VIC,-36.27,144.85
3563, Lockington, VIC,-36.27,144.48
3525, Barrakee, VIC,-36.27,143.43
5266, Bunbury, SA,-36.24,139.97
3682, Boralma, VIC,-36.24,146.41
3480, Areegra, VIC,-36.24,142.69
3727, Almonds, VIC,-36.23,146.06
3482, Massey, VIC,-36.23,142.86
3634, Bunbartha, VIC,-36.22,145.34
3576, Durham Ox, VIC,-36.2,143.96
3705, Cudgewa, VIC,-36.19,147.77
3565, Kotta, VIC,-36.19,144.53
3700, Bullioh, VIC,-36.18,147.34
2624, Perisher Valley, NSW,-36.18,148.44
5267, Brimbago, SA,-36.17,140.47
3418, Broughton, VIC,-36.17,141.33
3635, Kaarimba, VIC,-36.16,145.3
3622, Koyuga, VIC,-36.16,144.77
3683, Chiltern, VIC,-36.15,146.61
3638, Kotupna, VIC,-36.15,145.17
2545, Belowra, NSW,-36.15,149.71
3694, Bandiana Milpo, VIC,-36.14,146.92
3636, Drumanure, VIC,-36.14,145.5
3423, Jeparit, VIC,-36.14,141.99
3564, Echuca, VIC,-36.13,144.73
3688, Barnawartha, VIC,-36.11,146.67
3728, Boomahnoomoonah, VIC,-36.1,146.08
3704, Koetong, VIC,-36.1,147.54
3690, West Wodonga, VIC,-36.1,146.82
3685, Boorhaman North, VIC,-36.1,146.22
3649, Katamatite, VIC,-36.08,145.69
2899, Norfolk Island, NSW,-36.08,146.93
2640, Albury, NSW,-36.08,146.91
3391, Brim, VIC,-36.07,142.52
3527, Bunguluke, VIC,-36.06,143.39
3709, Burrowye, VIC,-36.05,147.56
3708, Tintaldra, VIC,-36.05,147.93
3637, Waaia, VIC,-36.05,145.33
3575, Gladfield, VIC,-36.04,143.99
2641, Hamilton Valley, NSW,-36.04,146.92
3730, Bathumi, VIC,-36.03,146.08
3639, Barmah, VIC,-36.02,144.97
3687, Wahgunyah, VIC,-36.01,146.4
3537, Barraport, VIC,-36.01,143.67
2629, Adaminaby, NSW,-36,148.77
3562, Torrumbarry, VIC,-35.98,144.46
3483, Ballapur, VIC,-35.98,142.75
2537, Bergalia, NSW,-35.98,150.11
3640, Katunga, VIC,-35.97,145.46
2002, World Square, NSW,-35.97,146.41
3643, Cobram, VIC,-35.96,145.63
3566, Gunbower, VIC,-35.96,144.37
2644, Bowna, NSW,-35.96,147.13
2643, Howlong, NSW,-35.96,146.61
2626, Bredbo, NSW,-35.96,149.15
2647, Mulwala, NSW,-35.95,145.96
3395, Beulah, VIC,-35.94,142.42
3641, Bearii, VIC,-35.92,145.33
3644, Barooga, NSW,-35.91,145.69
3567, Horfield, VIC,-35.89,144.24
3579, Appin, VIC,-35.88,143.87
2646, Balldale, NSW,-35.85,146.52
3568, Burkes Bridge, VIC,-35.84,144.34
2653, Burra, NSW,-35.83,148.07
2621, Anembo, NSW,-35.81,149.43
2731, Bunnaloo, NSW,-35.79,144.63
5222, American Beach, SA,-35.78,137.88
3529, Kalpienung, VIC,-35.78,143.26
5221, American River, SA,-35.77,137.78
3542, Cokum, VIC,-35.76,143.28
3540, Cannie, VIC,-35.76,143.45
3396, Hopetoun, VIC,-35.73,142.36
2536, Batehaven, NSW,-35.73,150.2
3530, Culgoa, VIC,-35.72,143.11
5265, Coonalpyn, SA,-35.7,139.86
3424, Albacutya, VIC,-35.69,141.97
2660, Culcairn, NSW,-35.67,147
2735, Koraleigh, NSW,-35.66,144.14
2712, Berrigan, NSW,-35.66,145.81
2622, Araluen, NSW,-35.65,149.81
3580, Koondrook, VIC,-35.64,144.11
3531, Berriwillock, VIC,-35.64,142.99
3485, Banyan, VIC,-35.64,142.77
2732, Barham, NSW,-35.63,144.13
3581, Lake Charm, VIC,-35.62,143.8
5223, Bay Of Shoals, SA,-35.61,137.57
3487, Lascelles, VIC,-35.61,142.58
5204, Cape Jervis, SA,-35.6,138.11
2659, Alma Park, NSW,-35.6,146.79
2649, Laurel Hill, NSW,-35.6,148.09
2713, Blighty, NSW,-35.59,145.29
5301, Carcuma, SA,-35.58,140.04
2620, Beard, ACT,-35.58,149.23
5264, Coorong, SA,-35.57,138.98
2611, Bimberi, NSW,-35.56,148.62
2623, Captains Flat, NSW,-35.55,149.45
1340, Kings Cross, NSW,-35.54,148.02
5212, Port Elliot, SA,-35.53,138.67
5211, Back Valley, SA,-35.53,138.53
2912, Gungahlin, ACT,-35.52,149.08
2906, Banks, ACT,-35.52,149.08
2618, Hall, ACT,-35.52,149.08
2539, Bawley Point, NSW,-35.52,150.39
5259, Ashville, SA,-35.51,139.37
5213, Middleton, SA,-35.51,138.71
3583, Tresco, VIC,-35.51,143.64
3544, Chinangin, VIC,-35.51,143.2
2714, Aratula, NSW,-35.51,145.05
5256, Clayton Bay, SA,-35.5,138.93
5203, Bald Hills, SA,-35.5,138.39
2538, Brooman, NSW,-35.49,150.23
3584, Lake Boga, VIC,-35.46,143.63
5214, Currency Creek, SA,-35.45,138.77
2658, Henty, NSW,-35.44,146.99
2642, Bidgeemia, NSW,-35.44,146.44
2905, Bonython, ACT,-35.43,149.08
5303, Parilla, SA,-35.42,140.69
5202, Hindmarsh Tiers, SA,-35.42,138.57
3585, Castle Donnington, VIC,-35.42,143.59
2900, Greenway, ACT,-35.42,149.07
3488, Speed, VIC,-35.4,142.44
2904, Fadden, ACT,-35.4,149.12
2903, Erindale Centre, ACT,-35.4,149.1
5261, Cooke Plains, SA,-35.38,139.56
3491, Patchewollock, VIC,-35.38,142.19
2902, Kambah, ACT,-35.38,149.05
2619, Jerrabomberra, NSW,-35.38,149.2
2607, Farrer, ACT,-35.38,149.1
3533, Bimbourie, VIC,-35.36,142.79
5210, Mount Compass, SA,-35.35,138.62
2716, Four Corners, NSW,-35.35,145.53
2606, Chifley, ACT,-35.35,149.08
3489, Tempy, VIC,-35.34,142.48
5302, Lameroo, SA,-35.33,140.52
5254, Callington, SA,-35.33,139.88
5174, Sellicks Beach, SA,-35.33,138.45
5255, Angas Plains, SA,-35.32,139
2720, Argalong, NSW,-35.32,148.45
2655, French Park, NSW,-35.32,147.19
2605, Curtin, ACT,-35.32,149.08
2604, Causeway, ACT,-35.32,149.15
2603, Forrest, ACT,-35.32,149.12
2729, Adelong, NSW,-35.31,148.06
2600, Barton, ACT,-35.31,149.14
3586, Bulga, VIC,-35.3,143.36
2609, Canberra International Airport, ACT,-35.3,149.19
5157, Ashbourne, SA,-35.28,138.77
3506, Cowangie, VIC,-35.28,141.4
2608, Civic Square, ACT,-35.28,149.13
2601, Acton, ACT,-35.28,149.11
200, Australian National University, ACT,-35.28,149.12
5173, Aldinga, SA,-35.27,138.48
5172, Dingabledinga, SA,-35.27,138.63
3588, Woorinen South, VIC,-35.27,143.45
2612, Braddon, ACT,-35.27,149.13
3589, Woorinen, VIC,-35.26,143.47
2614, Aranda, ACT,-35.26,149.08
2602, Ainslie, ACT,-35.26,149.15
5201, Blackfellows Creek, SA,-35.25,138.71
2734, Cunninyeuk, NSW,-35.25,143.9
2616, Belconnen, ACT,-35.25,149.07
3590, Beverford, VIC,-35.24,143.48
2617, Belconnen, ACT,-35.24,149.07
2710, Barratta, NSW,-35.23,144.49
5170, Maslin Beach, SA,-35.22,138.48
3591, Vinifera, VIC,-35.22,143.41
3512, Carina, VIC,-35.22,141.09
2911, Crace, ACT,-35.22,149.12
5169, Moana, SA,-35.2,138.47
3490, Big Desert, VIC,-35.2,141.6
2913, Casey, ACT,-35.2,149.13
2615, Charnwood, ACT,-35.2,149.03
221, Barton, ACT,-35.2,149.1
3595, Nyah West, VIC,-35.19,143.35
3507, Walpeup, VIC,-35.19,142.02
2733, Dhuragoon, NSW,-35.19,144.16
5577, Foul Bay, SA,-35.18,137.21
3509, Linga, VIC,-35.17,141.69
2914, Amaroo, ACT,-35.17,149.13
5171, Blewitt Springs, SA,-35.16,138.59
2650, Alfredtown, NSW,-35.16,147.51
5167, Port Noarlunga, SA,-35.15,138.47
3594, Nyah, VIC,-35.15,143.36
2663, Cowabbie, NSW,-35.15,145.98
2661, Kapooka, NSW,-35.15,147.3
5168, Noarlunga Centre, SA,-35.14,138.49
5165, Christies Beach, SA,-35.14,138.47
5163, Hackham, SA,-35.14,138.53
5306, Wynarka, SA,-35.13,139.73
5251, Bugle Ranges, SA,-35.13,138.89
5164, Christie Downs, SA,-35.13,138.5
2645, Cullivel, NSW,-35.13,146.13
2308, Callaghan, NSW,-35.13,147.32
5839, Adelaide, SA,-35.12,139.27
5810, Adelaide, SA,-35.12,139.27
5800, Adelaide, SA,-35.12,139.27
5166, O\Sullivan Beach, SA,-35.12,138.48
5162, Morphett Vale, SA,-35.12,138.52
5001, Adelaide, SA,-35.12,139.27
3596, Miralie, VIC,-35.12,143.33
2656, Brookdale, NSW,-35.12,147
5576, Honiton, SA,-35.1,137.65
5307, Karoonda, SA,-35.1,139.89
5160, Lonsdale, SA,-35.1,138.5
5253, Avoca Dell, SA,-35.09,139.31
5161, Old Reynella, SA,-35.09,138.54
5159, Aberfoyle Park, SA,-35.08,138.59
5158, Hallett Cove, SA,-35.08,138.52
2727, Adjungbilly, NSW,-35.08,148.41
5153, Biggs Flat, SA,-35.07,138.78
2678, Charles Sturt University, NSW,-35.06,147.35
5583, Coobowie, SA,-35.04,137.73
5250, Blakiston, SA,-35.04,138.88
5049, Kingston Park, SA,-35.04,138.52
5245, Hahndorf, SA,-35.03,138.81
5050, Bellevue Heights, SA,-35.03,138.59
5047, Darlington, SA,-35.03,138.56
2700, Bundure, NSW,-35.03,146.61
6330, Albany, WA,-35.02,117.88
5582, Port Giles, SA,-35.02,137.76
5309, Borrika, SA,-35.02,140.05
5156, Upper Sturt, SA,-35.02,138.68
5051, Blackwood, SA,-35.02,138.62
5048, Brighton, SA,-35.02,138.52
5042, Bedford Park, SA,-35.02,138.57
5155, Bridgewater, SA,-35.01,138.76
5154, Aldgate, SA,-35.01,138.73
5046, Oaklands Park, SA,-35.01,138.55
5252, Brukunga, SA,-35,138.94
5052, Belair, SA,-35,138.62
5304, Kringin, SA,-34.99,140.78
5243, Oakbank, SA,-34.99,138.84
5242, Balhannah, SA,-34.99,138.83
5062, Brown Hill Creek, SA,-34.99,138.65
5044, Glengowrie, SA,-34.99,138.53
5043, Ascot Park, SA,-34.99,138.56
5150, Eagle On The Hill, SA,-34.98,138.67
5045, Glenelg, SA,-34.98,138.52
5041, Colonel Light Gardens, SA,-34.98,138.59
6333, Bow Bridge, WA,-34.97,116.95
5152, Cleland, SA,-34.97,138.7
5144, Carey Gully, SA,-34.97,138.75
5039, Clarence Gardens, SA,-34.97,138.58
5038, Camden Park, SA,-34.97,138.54
5142, Uraidla, SA,-34.96,138.74
5064, Glen Osmond, SA,-34.96,138.64
5061, Hyde Park, SA,-34.96,138.61
5040, Novar Gardens, SA,-34.96,138.53
5037, Glandore, SA,-34.96,138.57
5034, Clarence Park, SA,-34.96,138.59
3546, Bolton, VIC,-34.96,142.88
2736, Goodnight, NSW,-34.96,143.34
5950, Adelaide Airport, SA,-34.95,138.53
5234, Birdwood, SA,-34.95,138.56
5140, Greenhill, SA,-34.95,138.7
5138, Basket Range, SA,-34.95,138.76
5066, Beaumont, SA,-34.95,138.66
5035, Ashford, SA,-34.95,138.57
5141, Horsnell Gully, SA,-34.94,138.71
5137, Ashton, SA,-34.94,138.74
5065, Dulwich, SA,-34.94,138.63
5063, Eastwood, SA,-34.94,138.62
5246, Woodhouse, SA,-34.93,138.68
5139, Forest Range, SA,-34.93,138.8
5068, Heathpool, SA,-34.93,138.65
5033, Cowandilla, SA,-34.93,138.56
5032, Brooklyn Park, SA,-34.93,138.54
5031, Mile End, SA,-34.93,138.56
5024, Fulham, SA,-34.93,138.51
5000, Adelaide, SA,-34.93,138.6
6398, Broke, WA,-34.92,116.47
5244, Charleston, SA,-34.92,138.9
5240, Lenswood, SA,-34.92,138.83
5136, Norton Summit, SA,-34.92,138.72
5072, Auldana, SA,-34.92,138.68
5071, Kent Town, SA,-34.92,138.62
5067, Beulah Park, SA,-34.92,138.64
5006, North Adelaide, SA,-34.92,138.6
5005, Adelaide University, SA,-34.92,138.6
2581, Bellmount Forest, NSW,-34.92,149.24
5241, Lobethal, SA,-34.91,138.85
5134, Cherryville, SA,-34.91,138.77
5069, College Park, SA,-34.91,138.62
5025, Flinders Park, SA,-34.91,138.55
5023, Findon, SA,-34.91,138.53
2726, Jugiong, NSW,-34.91,148.32
5082, Fitzroy, SA,-34.9,138.59
5022, Grange, SA,-34.9,138.49
5009, Allenby Gardens, SA,-34.9,138.56
5008, Croydon, SA,-34.9,138.56
5007, Bowden, SA,-34.9,138.58
6327, Redmond, WA,-34.89,117.69
5073, Hectorville, SA,-34.89,138.66
5070, Felixstow, SA,-34.89,138.64
2540, Bamarang, NSW,-34.89,150.53
5087, Klemzig, SA,-34.88,138.64
5081, Collinswood, SA,-34.88,138.62
5074, Campbelltown, SA,-34.88,138.66
5014, Albert Park, SA,-34.88,138.52
5011, Woodville, SA,-34.88,138.54
5236, Tungkillo, SA,-34.87,139.06
5083, Broadview, SA,-34.87,138.61
5076, Athelstone, SA,-34.87,138.7
5021, West Lakes, SA,-34.87,138.48
5020, West Lakes Shore, SA,-34.87,138.48
5942, Regency Park, SA,-34.86,138.57
5237, Apamurra, SA,-34.86,139.2
5232, Cudlee Creek, SA,-34.86,138.86
5088, Holden Hill, SA,-34.86,138.66
5086, Gilles Plains, SA,-34.86,138.66
5085, Clearview, SA,-34.86,138.62
5084, Blair Athol, SA,-34.86,138.6
5075, Dernancourt, SA,-34.86,138.68
5012, Athol Park, SA,-34.86,138.54
5010, Angle Park, SA,-34.86,138.56
3597, Kenley, VIC,-34.86,143.34
2707, Argoon, NSW,-34.86,145.67
5132, Paracombe, SA,-34.85,138.77
5089, Highbury, SA,-34.85,138.7
3549, Annuello, VIC,-34.85,142.83
3501, Hattah, VIC,-34.85,142.33
2535, Back Forest, NSW,-34.85,150.68
6328, Cheynes, WA,-34.84,118.34
5019, Exeter, SA,-34.84,138.49
5015, Birkenhead, SA,-34.84,138.5
5013, Gillman, SA,-34.84,138.53
2541, Bangalee, NSW,-34.84,150.57
5131, Houghton, SA,-34.83,138.76
5098, Ingle Farm, SA,-34.83,138.65
5094, Cavan, SA,-34.83,138.6
5093, Para Vista, SA,-34.83,138.67
5092, Modbury, SA,-34.83,138.69
5231, Chain Of Ponds, SA,-34.82,138.83
5133, Inglewood, SA,-34.82,138.77
5097, Redwood Park, SA,-34.82,138.7
5095, Mawson Lakes, SA,-34.82,138.62
5016, Largs Bay, SA,-34.82,138.49
2722, Brungle, NSW,-34.82,148.08
2701, Berry Jerry, NSW,-34.82,147.2
5091, Banksia Park, SA,-34.81,138.72
5273, Avenue Range, SA,-34.8,138.76
5233, Forreston, SA,-34.8,138.9
5127, Wynn Vale, SA,-34.8,138.69
5126, Fairview Park, SA,-34.8,138.72
5017, Osborne, SA,-34.8,138.49
5308, Copeville, SA,-34.79,139.85
5235, Cromer, SA,-34.79,138.97
5125, Golden Grove, SA,-34.79,138.7
5107, Green Fields, SA,-34.79,138.6
5106, Parafield, SA,-34.79,138.64
5096, Gulfview Heights, SA,-34.79,138.67
5018, North Haven, SA,-34.79,138.5
2702, Ganmain, NSW,-34.79,147.04
1192, Sydney, NSW,-34.79,147.69
5581, Port Vincent, SA,-34.78,137.86
6326, Narrikup, WA,-34.77,117.7
5110, Bolivar, SA,-34.77,138.59
5109, Brahma Lodge, SA,-34.77,138.66
5238, Angas Valley, SA,-34.76,139.31
5108, Paralowie, SA,-34.76,138.61
2590, Bethungra, NSW,-34.76,147.85
2582, Bango, NSW,-34.75,148.96
5311, Alawoona, SA,-34.74,140.51
3599, Boundary Bend, VIC,-34.74,143.14
5606, Kirton Point, SA,-34.73,135.87
5575, Bluff Beach, SA,-34.73,137.48
2534, Broughton Village, NSW,-34.73,150.77
6324, Denbarker, WA,-34.72,117.51
5112, Elizabeth, SA,-34.71,138.67
5111, Edinburgh, SA,-34.71,138.63
5113, Davoren Park, SA,-34.7,138.67
6262, Boorara Brook, WA,-34.69,116.21
5580, Curramulka, SA,-34.67,137.76
5114, Andrews Farm, SA,-34.67,138.67
2584, Binalong, NSW,-34.67,148.63
5607, Boston, SA,-34.66,135.86
5354, Bakara, SA,-34.66,139.78
5121, Macdonald Park, SA,-34.66,138.64
5120, Buckland Park, SA,-34.66,138.51
2533, Bombo, NSW,-34.66,150.85
5310, Caliph, SA,-34.65,140.28
5118, Bibaringa, SA,-34.64,138.77
5117, Angle Vale, SA,-34.64,138.64
5115, Kudla, SA,-34.64,138.7
2703, Yanco, NSW,-34.63,146.4
2578, Bundanoon, NSW,-34.63,150.32
5116, Evanston, SA,-34.62,138.73
5260, Elwomple, SA,-34.61,140.3
2577, Avoca, NSW,-34.61,150.48
5351, Altona, SA,-34.6,138.91
2585, Galong, NSW,-34.6,148.56
2529, Blackbutt, NSW,-34.57,150.83
2528, Barrack Heights, NSW,-34.57,150.86
2527, Albion Park, NSW,-34.57,150.78
2706, Darlington Point, NSW,-34.56,146.01
2579, Big Hill, NSW,-34.56,149.99
5350, Rosedale, SA,-34.55,138.85
2587, Harden, NSW,-34.55,148.37
5352, Bethany, SA,-34.54,138.98
2576, Bowral, NSW,-34.54,150.39
2588, Wallendbeen, NSW,-34.52,148.16
2737, Euston, NSW,-34.51,142.85
2725, Stockinbingal, NSW,-34.51,147.88
2530, Avondale, NSW,-34.51,150.73
6323, Kendenup, WA,-34.5,117.59
5353, Angaston, SA,-34.5,139.05
5502, Fischer, SA,-34.49,138.61
2705, Brobenah, NSW,-34.49,146.43
2505, Port Kembla, NSW,-34.49,150.89
6397, Rocky Gully, WA,-34.48,117.1
2506, Berkeley, NSW,-34.48,150.84
5355, Daveyston, SA,-34.47,138.88
2502, Cringila, NSW,-34.47,150.87
5360, Greenock, SA,-34.46,138.93
3494, Carwarp, VIC,-34.46,142.23
2666, Combaning, NSW,-34.46,147.68
5372, Freeling, SA,-34.45,138.81
2586, Boorowa, NSW,-34.44,148.72
2580, Bannaby, NSW,-34.44,149.96
2525, Figtree, NSW,-34.44,150.86
2500, Coniston, NSW,-34.44,150.89
5400, Magdalla, SA,-34.43,138.7
2594, Berthong, NSW,-34.43,148.07
5571, Ardrossan, SA,-34.42,137.92
5330, Boolgun, SA,-34.42,140.04
5630, Edillilie, SA,-34.41,135.71
5371, Morn Hill, SA,-34.41,138.75
2575, Alpine, NSW,-34.41,150.52
2522, University Of Wollongong, NSW,-34.41,150.88
5356, Annadale, SA,-34.39,139.39
2519, Balgownie, NSW,-34.39,150.88
2526, Cordeaux, NSW,-34.38,150.78
2518, Bellambi, NSW,-34.37,150.91
6322, Tenterden, WA,-34.36,117.56
5410, Linwood, SA,-34.36,138.77
2665, Ardlethan, NSW,-34.36,146.9
2517, Russell Vale, NSW,-34.36,150.9
6260, Beedelup, WA,-34.35,115.94
5460, Barabba, SA,-34.35,138.59
5357, Blanchetown, SA,-34.35,139.61
5333, Bookpurnong, SA,-34.35,140.6
2574, Avon, NSW,-34.35,150.63
2516, Bulli, NSW,-34.33,150.91
6290, Augusta, WA,-34.32,115.16
5573, Balgowan, SA,-34.32,137.49
6396, Frankland River, WA,-34.31,116.98
2515, Austinmer, NSW,-34.31,150.93
6321, Cranbrook, WA,-34.3,117.56
5373, Allendale North, SA,-34.3,138.92
5343, Berri, SA,-34.29,140.6
5332, Moorook, SA,-34.29,140.36
3496, Cardross, VIC,-34.29,142.15
2571, Balmoral, NSW,-34.29,150.53
5501, Avon, SA,-34.28,138.34
5401, Alma, SA,-34.27,138.63
5344, Glossop, SA,-34.27,140.53
5572, Arthurton, SA,-34.26,137.76
2680, Beelbangera, NSW,-34.26,146.1
5345, Barmera, SA,-34.25,140.47
6338, Amelup, WA,-34.24,118.22
5346, Cobdogla, SA,-34.24,140.41
5342, Monash, SA,-34.24,140.56
2508, Coalcliff, NSW,-34.24,150.98
6258, Balbarrup, WA,-34.23,116.2
3498, Irymple, VIC,-34.23,142.18
5412, Navan, SA,-34.22,138.74
5411, Giles Corner, SA,-34.22,138.73
5340, Mundic Creek, SA,-34.22,140.81
5331, Kingston On Murray, SA,-34.22,140.35
2573, Tahmoor, NSW,-34.22,150.59
5631, Cockaleechie, SA,-34.21,135.84
5341, Chaffey, SA,-34.21,140.69
5322, Golden Heights, SA,-34.2,139.94
3505, Birdwoodton, VIC,-34.2,142.06
2569, Douglas Park, NSW,-34.19,150.71
5570, Clinton, SA,-34.18,137.98
3500, Mildura, VIC,-34.18,142.16
2738, Gol Gol, NSW,-34.18,142.22
2681, Myall Park, NSW,-34.18,146.11
2668, Barmedman, NSW,-34.18,147.41
2572, Lakesland, NSW,-34.18,150.53
2739, Buronga, NSW,-34.17,142.18
6288, Alexandra Bridge, WA,-34.16,115.2
5558, Agery, SA,-34.16,137.74
2803, Bendick Murrell, NSW,-34.16,148.45
5632, Kapinnie, SA,-34.15,135.5
5552, Kainton, SA,-34.15,137.94
5461, Balaklava, SA,-34.15,138.42
2648, Anabranch, NSW,-34.15,142.09
6286, Boranup, WA,-34.13,115.05
5605, Butler, SA,-34.11,136.17
5604, Port Neill, SA,-34.11,136.33
2671, Alleena, NSW,-34.11,147.14
2568, Menangle, NSW,-34.11,150.75
6336, Cowalellup, WA,-34.1,118.55
2563, Menangle Park, NSW,-34.1,150.76
1800, Ashfield, NSW,-34.1,150.78
5374, Australia Plains, SA,-34.09,139.17
5321, Cadell, SA,-34.09,139.77
2717, Dareton, NSW,-34.09,142.04
2230, Bundeena, NSW,-34.09,151.15
2583, Bigga, NSW,-34.08,149.15
2570, Belimbla Park, NSW,-34.08,150.54
2560, Airds, NSW,-34.08,150.83
2232, Audley, NSW,-34.08,151.06
1445, Rosebery, NSW,-34.08,151.01
6346, Fitzgerald River National Park, WA,-34.07,119.59
5550, Beaufort, SA,-34.07,138.23
2233, Engadine, NSW,-34.07,151.01
2769, The Ponds, NSW,-34.05,150.75
2567, Currans Hill, NSW,-34.05,150.76
2559, Blairmount, NSW,-34.05,150.8
1495, Caringbah, NSW,-34.05,151.12
2809, Greenethorpe, NSW,-34.04,148.4
2807, Koorawatha, NSW,-34.04,148.55
2652, Boorga, NSW,-34.04,146.03
2558, Eagle Vale, NSW,-34.04,150.81
2229, Caringbah, NSW,-34.04,151.12
1490, Miranda, NSW,-34.04,151.11
5554, Boors Plain, SA,-34.03,137.67
5451, Auburn, SA,-34.03,138.68
2228, Miranda, NSW,-34.03,151.1
2227, Gymea, NSW,-34.03,151.09
2566, Bow Bowing, NSW,-34.02,150.84
1499, Sutherland, NSW,-34.02,151.06
6320, Bobalong, WA,-34.01,117.56
6256, Glenlynn, WA,-34.01,116.15
5320, Beatty, SA,-34.01,139.44
2231, Kurnell, NSW,-34.01,151.2
2226, Bonnet Bay, NSW,-34.01,151.05
2225, Oyster Bay, NSW,-34,151.09
2224, Kangaroo Point, NSW,-34,151.1
2810, Bimbi, NSW,-33.99,147.93
2721, Bland, NSW,-33.99,147.68
2565, Bardia, NSW,-33.99,150.84
2564, Glenquarie, NSW,-33.99,150.89
2557, Catherine Field, NSW,-33.99,150.77
2234, Alfords Point, NSW,-33.99,151.02
2221, Blakehurst, NSW,-33.99,151.11
2219, Dolls Point, NSW,-33.99,151.15
5452, Leasingham, SA,-33.98,138.65
5414, Manoora, SA,-33.98,138.79
2217, Beverley Park, NSW,-33.98,151.13
2210, Lugarno, NSW,-33.98,151.05
2036, Chifley, NSW,-33.98,151.24
1493, Hurstville, NSW,-33.98,151.09
5381, Brady Creek, SA,-33.97,139
2223, Mortdale, NSW,-33.97,151.08
2220, Hurstville, NSW,-33.97,151.1
2218, Allawah, NSW,-33.97,151.11
2172, Pleasure Point, NSW,-33.97,150.99
2167, Glenfield, NSW,-33.97,150.89
2222, Penshurst, NSW,-33.96,151.09
2213, East Hills, NSW,-33.96,150.99
2019, Banksmeadow, NSW,-33.96,151.21
1890, Ingleburn, NSW,-33.96,150.8
2556, Bringelly, NSW,-33.95,150.73
2216, Banksia, NSW,-33.95,151.14
2212, Revesby, NSW,-33.95,151.02
2211, Padstow, NSW,-33.95,151.04
2209, Beverly Hills, NSW,-33.95,151.08
2173, Holsworthy, NSW,-33.95,150.95
2170, Casula, NSW,-33.95,150.91
2035, Maroubra, NSW,-33.95,151.24
1875, Moorebank, NSW,-33.95,150.92
1700, Ermington, NSW,-33.95,151.21
1455, Botany, NSW,-33.95,151.2
6335, Gnowangerup, WA,-33.94,118.01
2808, Wyangala, NSW,-33.94,149.05
2752, Silverdale, NSW,-33.94,150.58
2520, Wollongong, NSW,-33.94,151.14
2214, Milperra, NSW,-33.94,150.99
2208, Kingsgrove, NSW,-33.94,151.1
2205, Arncliffe, NSW,-33.94,151.15
1480, Kingsgrove, NSW,-33.94,151.1
5510, Lochiel, SA,-33.93,138.17
5413, Apoinga, SA,-33.93,138.94
2793, Darbys Falls, NSW,-33.93,148.86
2207, Bardwell Park, NSW,-33.93,151.13
2206, Clemton Park, NSW,-33.93,151.1
2196, Punchbowl, NSW,-33.93,151.05
2179, Austral, NSW,-33.93,150.81
2032, Daceyville, NSW,-33.93,151.23
2020, Mascot, NSW,-33.93,151.19
2018, Eastlakes, NSW,-33.93,151.21
1891, Milperra, NSW,-33.93,151
1460, Mascot, NSW,-33.93,151.21
5415, Mintaro, SA,-33.92,138.72
2200, Bankstown, NSW,-33.92,151.03
2195, Lakemba, NSW,-33.92,151.08
2192, Belmore, NSW,-33.92,151.09
2168, Ashcroft, NSW,-33.92,150.9
2034, Coogee, NSW,-33.92,151.25
6285, Bramley, WA,-33.91,115.03
5603, Arno Bay, SA,-33.91,136.57
2795, Abercrombie, NSW,-33.91,149.33
2794, Bumbaldry, NSW,-33.91,148.46
2204, Marrickville, NSW,-33.91,151.16
2199, Yagoona, NSW,-33.91,151.03
2198, Georges Hall, NSW,-33.91,150.98
2194, Campsie, NSW,-33.91,151.1
2052, Unsw Sydney, NSW,-33.91,151.23
2044, St Peters, NSW,-33.91,151.18
2033, Kensington, NSW,-33.91,151.22
2031, Clovelly, NSW,-33.91,151.26
1888, Bankstown, NSW,-33.91,151.02
1885, Bankstown, NSW,-33.91,151.02
1476, Marrickville, NSW,-33.91,151.15
1475, Marrickville, NSW,-33.91,151.15
1466, Unsw Sydney, NSW,-33.91,151.23
5556, North Beach, SA,-33.9,137.63
2203, Dulwich Hill, NSW,-33.9,151.14
2197, Bass Hill, NSW,-33.9,150.99
2193, Ashbury, NSW,-33.9,151.12
2191, Belfield, NSW,-33.9,151.08
2166, Cabramatta, NSW,-33.9,150.94
2133, Croydon Park, NSW,-33.9,151.11
2048, Stanmore, NSW,-33.9,151.17
2043, Erskineville, NSW,-33.9,151.19
2042, Enmore, NSW,-33.9,151.17
2024, Bronte, NSW,-33.9,151.26
2017, Waterloo, NSW,-33.9,151.21
2015, Alexandria, NSW,-33.9,151.2
1441, Waterloo, NSW,-33.9,151.06
1440, Waterloo, NSW,-33.9,151.06
2190, Chullora, NSW,-33.89,151.06
2177, Bonnyrigg, NSW,-33.89,150.89
2143, Birrong, NSW,-33.89,151.02
2136, Burwood Heights, NSW,-33.89,151.1
2131, Ashfield, NSW,-33.89,151.13
2130, Summer Hill, NSW,-33.89,151.14
2124, Parramatta, NSW,-33.89,151.14
2123, Parramatta, NSW,-33.89,151.14
2050, Camperdown, NSW,-33.89,151.18
2049, Lewisham, NSW,-33.89,151.14
2026, Bondi, NSW,-33.89,151.26
2025, Woollahra, NSW,-33.89,151.24
2023, Bellevue Hill, NSW,-33.89,151.26
2022, Bondi Junction, NSW,-33.89,151.25
2021, Centennial Park, NSW,-33.89,151.22
2016, Redfern, NSW,-33.89,151.2
2008, Chippendale, NSW,-33.89,151.2
2006, The University Of Sydney, NSW,-33.89,151.19
1871, Liverpool, NSW,-33.89,151.1
1805, Burwood, NSW,-33.89,151.1
1741, Parramatta, NSW,-33.89,151.14
1740, Parramatta, NSW,-33.89,151.14
1465, Kensington, NSW,-33.89,151.14
1430, Eveleigh, NSW,-33.89,151.2
1355, Bondi Junction, NSW,-33.89,151.26
1215, Australia Square, NSW,-33.89,151.18
1214, Australia Square, NSW,-33.89,151.18
1213, Australia Square, NSW,-33.89,151.18
1212, Australia Square, NSW,-33.89,151.18
1211, Australia Square, NSW,-33.89,151.18
1210, Australia Square, NSW,-33.89,151.18
1209, Australia Square, NSW,-33.89,151.18
2555, Badgerys Creek, NSW,-33.88,150.74
2176, Abbotsbury, NSW,-33.88,150.87
2171, Cecil Hills, NSW,-33.88,150.85
2163, Carramar, NSW,-33.88,150.96
2162, Chester Hill, NSW,-33.88,151
2134, Burwood, NSW,-33.88,151.1
2132, Croydon, NSW,-33.88,151.11
2045, Haberfield, NSW,-33.88,151.14
2040, Leichhardt, NSW,-33.88,151.16
2038, Annandale, NSW,-33.88,151.17
2037, Forest Lodge, NSW,-33.88,151.18
2028, Double Bay, NSW,-33.88,151.24
2010, Darlinghurst, NSW,-33.88,151.22
2007, Broadway, NSW,-33.88,151.2
1835, Auburn, NSW,-33.88,151.02
1819, Strathfield, NSW,-33.88,151.09
1816, Strathfield, NSW,-33.88,151.09
1401, Broadway, NSW,-33.88,151.2
1360, Double Bay, NSW,-33.88,151.24
1300, Darlinghurst, NSW,-33.88,151.22
6348, Hopetoun, WA,-33.87,120.16
6284, Baudin, WA,-33.87,115.42
2715, Arumpo, NSW,-33.87,142.89
2178, Cecil Park, NSW,-33.87,150.84
2165, Fairfield, NSW,-33.87,150.96
2141, Berala, NSW,-33.87,151.03
2135, Strathfield, NSW,-33.87,151.09
2129, Sydney Markets, NSW,-33.87,151.19
2030, Dover Heights, NSW,-33.87,151.28
2029, Rose Bay, NSW,-33.87,151.28
2027, Darling Point, NSW,-33.87,151.24
2011, Elizabeth Bay, NSW,-33.87,151.23
2009, Pyrmont, NSW,-33.87,151.19
1565, Milsons Point, NSW,-33.87,151.19
1230, Queen Victoria Building, NSW,-33.87,151.21
1229, Queen Victoria Building, NSW,-33.87,151.21
1228, Queen Victoria Building, NSW,-33.87,151.21
1227, Queen Victoria Building, NSW,-33.87,151.21
1226, Queen Victoria Building, NSW,-33.87,151.21
1225, Royal Exchange, NSW,-33.87,151.21
1224, Royal Exchange, NSW,-33.87,151.21
1223, Royal Exchange, NSW,-33.87,151.21
1222, Royal Exchange, NSW,-33.87,151.21
1221, Royal Exchange, NSW,-33.87,151.21
5560, Bute, SA,-33.86,138.01
2140, Homebush, NSW,-33.86,151.08
2041, Balmain, NSW,-33.86,151.18
2039, Rozelle, NSW,-33.86,151.17
2000, Barangaroo, NSW,-33.86,151.21
1831, Granville, NSW,-33.86,150.95
1830, Granville, NSW,-33.86,150.95
1790, St Marys, NSW,-33.86,151.2
1750, North Parramatta, NSW,-33.86,151.02
6318, Broomehill, WA,-33.85,117.64
6254, Greenbushes, WA,-33.85,116.06
5462, Blyth, SA,-33.85,138.49
2175, Horsley Park, NSW,-33.85,150.85
2164, Smithfield, NSW,-33.85,150.94
2161, Guildford, NSW,-33.85,150.99
2144, Auburn, NSW,-33.85,151.03
2142, Blaxcell, NSW,-33.85,151.01
2138, Concord West, NSW,-33.85,151.09
2127, Newington, NSW,-33.85,151.08
2061, Kirribilli, NSW,-33.85,151.21
2047, Drummoyne, NSW,-33.85,151.15
2046, Abbotsford, NSW,-33.85,151.13
1860, Fairfield, NSW,-33.85,150.96
1848, Guildford, NSW,-33.85,150.97
6275, Barrabup, WA,-33.84,115.66
5453, Armagh, SA,-33.84,138.58
2787, Black Springs, NSW,-33.84,149.71
2160, Merrylands, NSW,-33.84,150.99
2139, Concord Repatriation Hospital, NSW,-33.84,151.1
2137, Breakfast Point, NSW,-33.84,151.11
2128, Silverwater, NSW,-33.84,151.05
2060, Hmas Platypus, NSW,-33.84,151.19
1470, Drummoyne, NSW,-33.84,151.15
6244, Boyup Brook, WA,-33.83,116.39
5520, Barunga Gap, SA,-33.83,138.12
5416, Farrell Flat, SA,-33.83,138.79
2110, Hunters Hill, NSW,-33.83,151.15
2090, Cremorne, NSW,-33.83,151.23
2089, Neutral Bay, NSW,-33.83,151.22
2088, Mosman, NSW,-33.83,151.24
2065, Crows Nest, NSW,-33.83,151.2
1675, Gladesville, NSW,-33.83,151.14
1585, Crows Nest, NSW,-33.83,151.2
1582, Crows Nest, NSW,-33.83,151.2
6450, Bandy Creek, WA,-33.82,121.94
5555, Alford, SA,-33.82,137.82
2150, Harris Park, NSW,-33.82,151.01
2111, Boronia Park, NSW,-33.82,151.14
2063, Northbridge, NSW,-33.82,151.22
2062, Cammeray, NSW,-33.82,151.21
1811, Silverwater, NSW,-33.82,151.05
1515, West Chatswood, NSW,-33.82,151.21
1335, Potts Point, NSW,-33.82,151.12
1235, Sydney South, NSW,-33.82,151.04
1234, Sydney South, NSW,-33.82,151.04
1233, Sydney South, NSW,-33.82,151.04
1232, Sydney South, NSW,-33.82,151.04
1231, Sydney South, NSW,-33.82,151.04
2759, Erskine Park, NSW,-33.81,150.79
2116, Rydalmere, NSW,-33.81,151.03
2115, Ermington, NSW,-33.81,151.05
2066, Lane Cove, NSW,-33.81,151.17
2064, Artarmon, NSW,-33.81,151.19
1570, Artarmon, NSW,-33.81,151.19
2766, Eastern Creek, NSW,-33.8,150.85
2151, North Parramatta, NSW,-33.8,151.01
2145, Constitution Hill, NSW,-33.8,150.95
2117, Dundas, NSW,-33.8,151.04
2114, Denistone, NSW,-33.8,151.08
2113, Blenheim Road, NSW,-33.8,151.13
2112, Denistone East, NSW,-33.8,151.1
2095, Manly, NSW,-33.8,151.29
2092, Seaforth, NSW,-33.8,151.25
2068, Castlecrag, NSW,-33.8,151.21
2067, Chatswood, NSW,-33.8,151.19
2059, North Sydney, NSW,-33.8,151.1
2055, North Sydney, NSW,-33.8,151.1
1685, West Ryde, NSW,-33.8,151.09
6255, Benjinup, WA,-33.79,116.3
6253, Balingup, WA,-33.79,115.98
2778, Linden, NSW,-33.79,150.04
2745, Glenmore Park, NSW,-33.79,150.67
2148, Arndell Park, NSW,-33.79,150.87
2146, Old Toongabbie, NSW,-33.79,150.97
2122, Eastwood, NSW,-33.79,151.08
2094, Fairlight, NSW,-33.79,151.27
2093, Balgowlah, NSW,-33.79,151.26
2057, Chatswood, NSW,-33.79,151.19
2001, Sydney, NSW,-33.79,151.27
1640, Frenchs Forest, NSW,-33.79,151.25
1639, Frenchs Forest, NSW,-33.79,151.25
1597, Lane Cove, NSW,-33.79,151.19
1595, Lane Cove, NSW,-33.79,151.19
1299, Sydney, NSW,-33.79,151.27
1298, Sydney, NSW,-33.79,151.27
1297, Sydney, NSW,-33.79,151.27
1296, Sydney, NSW,-33.79,151.27
1295, Sydney, NSW,-33.79,151.27
1294, Sydney, NSW,-33.79,151.27
1293, Sydney, NSW,-33.79,151.27
1292, Sydney, NSW,-33.79,151.27
1291, Sydney, NSW,-33.79,151.27
1207, Sydney, NSW,-33.79,151.27
1206, Sydney, NSW,-33.79,151.27
1205, Sydney, NSW,-33.79,151.27
1204, Sydney, NSW,-33.79,151.27
1203, Sydney, NSW,-33.79,151.27
1202, Sydney, NSW,-33.79,151.27
1201, Sydney, NSW,-33.79,151.27
1200, Sydney, NSW,-33.79,151.27
1199, Sydney, NSW,-33.79,151.27
1198, Sydney, NSW,-33.79,151.27
1197, Sydney, NSW,-33.79,151.27
1196, Sydney, NSW,-33.79,151.27
1195, Sydney, NSW,-33.79,151.27
1194, Sydney, NSW,-33.79,151.27
1193, Sydney, NSW,-33.79,151.27
1191, Sydney, NSW,-33.79,151.27
1190, Sydney, NSW,-33.79,151.27
1189, Sydney, NSW,-33.79,151.27
1188, Sydney, NSW,-33.79,151.27
1187, Sydney, NSW,-33.79,151.27
1186, Sydney, NSW,-33.79,151.27
1185, Sydney, NSW,-33.79,151.27
1184, Sydney, NSW,-33.79,151.27
1183, Sydney, NSW,-33.79,151.27
1182, Sydney, NSW,-33.79,151.27
1181, Sydney, NSW,-33.79,151.27
1180, Sydney, NSW,-33.79,151.27
1179, Sydney, NSW,-33.79,151.27
1178, Sydney, NSW,-33.79,151.27
1177, Sydney, NSW,-33.79,151.27
1176, Sydney, NSW,-33.79,151.27
1175, Sydney, NSW,-33.79,151.27
1174, Sydney, NSW,-33.79,151.27
1173, Sydney, NSW,-33.79,151.27
1172, Sydney, NSW,-33.79,151.27
1171, Sydney, NSW,-33.79,151.27
1170, Sydney, NSW,-33.79,151.27
1169, Sydney, NSW,-33.79,151.27
1168, Sydney, NSW,-33.79,151.27
1167, Sydney, NSW,-33.79,151.27
1166, Sydney, NSW,-33.79,151.27
1165, Sydney, NSW,-33.79,151.27
1164, Sydney, NSW,-33.79,151.27
1163, Sydney, NSW,-33.79,151.27
1162, Sydney, NSW,-33.79,151.27
1161, Sydney, NSW,-33.79,151.27
1160, Sydney, NSW,-33.79,151.27
1159, Sydney, NSW,-33.79,151.27
1158, Sydney, NSW,-33.79,151.27
1157, Sydney, NSW,-33.79,151.27
1156, Sydney, NSW,-33.79,151.27
1155, Sydney, NSW,-33.79,151.27
1154, Sydney, NSW,-33.79,151.27
1153, Sydney, NSW,-33.79,151.27
1152, Sydney, NSW,-33.79,151.27
1151, Sydney, NSW,-33.79,151.27
1150, Sydney, NSW,-33.79,151.27
1149, Sydney, NSW,-33.79,151.27
1148, Sydney, NSW,-33.79,151.27
1147, Sydney, NSW,-33.79,151.27
1146, Sydney, NSW,-33.79,151.27
1145, Sydney, NSW,-33.79,151.27
1144, Sydney, NSW,-33.79,151.27
1143, Sydney, NSW,-33.79,151.27
1142, Sydney, NSW,-33.79,151.27
1141, Sydney, NSW,-33.79,151.27
1140, Sydney, NSW,-33.79,151.27
1139, Sydney, NSW,-33.79,151.27
1138, Sydney, NSW,-33.79,151.27
1137, Sydney, NSW,-33.79,151.27
1136, Sydney, NSW,-33.79,151.27
1135, Sydney, NSW,-33.79,151.27
1134, Sydney, NSW,-33.79,151.27
1133, Sydney, NSW,-33.79,151.27
1131, Sydney, NSW,-33.79,151.27
1130, Sydney, NSW,-33.79,151.27
1129, Sydney, NSW,-33.79,151.27
1128, Sydney, NSW,-33.79,151.27
1127, Sydney, NSW,-33.79,151.27
1126, Sydney, NSW,-33.79,151.27
1125, Sydney, NSW,-33.79,151.27
1124, Sydney, NSW,-33.79,151.27
1123, Sydney, NSW,-33.79,151.27
1122, Sydney, NSW,-33.79,151.27
1121, Sydney, NSW,-33.79,151.27
1120, Sydney, NSW,-33.79,151.27
1119, Sydney, NSW,-33.79,151.27
1118, Sydney, NSW,-33.79,151.27
1115, Sydney, NSW,-33.79,151.27
1114, Sydney, NSW,-33.79,151.27
1113, Sydney, NSW,-33.79,151.27
1112, Sydney, NSW,-33.79,151.27
1110, Sydney, NSW,-33.79,151.27
1109, Sydney, NSW,-33.79,151.27
1108, Sydney, NSW,-33.79,151.27
1107, Sydney, NSW,-33.79,151.27
1106, Sydney, NSW,-33.79,151.27
1105, Sydney, NSW,-33.79,151.27
1101, Sydney, NSW,-33.79,151.27
1100, Sydney, NSW,-33.79,151.27
1046, Sydney, NSW,-33.79,151.27
1045, Sydney, NSW,-33.79,151.27
1044, Sydney, NSW,-33.79,151.27
1043, Sydney, NSW,-33.79,151.27
1042, Sydney, NSW,-33.79,151.27
1041, Sydney, NSW,-33.79,151.27
1040, Sydney, NSW,-33.79,151.27
1039, Sydney, NSW,-33.79,151.27
1038, Sydney, NSW,-33.79,151.27
1037, Sydney, NSW,-33.79,151.27
1036, Sydney, NSW,-33.79,151.27
1035, Sydney, NSW,-33.79,151.27
1034, Sydney, NSW,-33.79,151.27
1033, Sydney, NSW,-33.79,151.27
1031, Sydney, NSW,-33.79,151.27
1030, Sydney, NSW,-33.79,151.27
1029, Sydney, NSW,-33.79,151.27
1028, Sydney, NSW,-33.79,151.27
1027, Sydney, NSW,-33.79,151.27
1026, Sydney, NSW,-33.79,151.27
1025, Sydney, NSW,-33.79,151.27
1023, Sydney, NSW,-33.79,151.27
1022, Sydney, NSW,-33.79,151.27
1021, Sydney, NSW,-33.79,151.27
1020, Sydney, NSW,-33.79,151.27
1011, Sydney, NSW,-33.79,151.27
1010, Sydney, NSW,-33.79,151.27
1009, Sydney, NSW,-33.79,151.27
1008, Sydney, NSW,-33.79,151.27
1007, Sydney, NSW,-33.79,151.27
1006, Sydney, NSW,-33.79,151.27
1005, Sydney, NSW,-33.79,151.27
1004, Sydney, NSW,-33.79,151.27
1003, Sydney, NSW,-33.79,151.27
1002, Sydney, NSW,-33.79,151.27
1001, Sydney, NSW,-33.79,151.27
2760, Colyton, NSW,-33.78,150.79
2748, Orchard Hills, NSW,-33.78,150.72
2152, Northmead, NSW,-33.78,150.99
2118, Carlingford, NSW,-33.78,151.05
2069, Castle Cove, NSW,-33.78,151.2
1712, Epping, NSW,-33.78,151.12
1710, Epping, NSW,-33.78,151.12
6251, Brazier, WA,-33.77,115.83
2773, Glenbrook, NSW,-33.77,150.62
2767, Doonside, NSW,-33.77,150.87
2121, Epping, NSW,-33.77,151.08
2109, Macquarie University, NSW,-33.77,151.11
2100, Allambie Heights, NSW,-33.77,151.25
2096, Curl Curl, NSW,-33.77,151.29
2070, East Lindfield, NSW,-33.77,151.19
1755, Baulkham Hills, NSW,-33.77,150.97
2153, Baulkham Hills, NSW,-33.76,150.99
2087, Forestville, NSW,-33.76,151.21
2072, Gordon, NSW,-33.76,151.16
1771, Pennant Hills, NSW,-33.76,151.05
1730, Seven Hills, NSW,-33.76,150.97
1715, Pennant Hills, NSW,-33.76,151.05
1680, Ryde, NSW,-33.76,151.14
6337, Fitzgerald, WA,-33.75,119.46
6252, Mullalyup, WA,-33.75,115.95
2125, West Pennant Hills, NSW,-33.75,151.04
2119, Beecroft, NSW,-33.75,151.06
2086, Frenchs Forest, NSW,-33.75,151.23
2071, East Killara, NSW,-33.75,151.17
2774, Blaxland, NSW,-33.74,150.61
2768, Glenwood, NSW,-33.74,150.92
2750, Emu Heights, NSW,-33.74,150.65
2747, Cambridge Gardens, NSW,-33.74,150.72
2147, Kings Langley, NSW,-33.74,150.92
2120, Pennant Hills, NSW,-33.74,151.07
2099, Cromer, NSW,-33.74,151.28
2097, Collaroy, NSW,-33.74,151.3
2085, Belrose, NSW,-33.74,151.21
2073, Pymble, NSW,-33.74,151.14
1765, Castle Hill, NSW,-33.74,151.03
1220, Grosvenor Place, NSW,-33.74,151.03
1219, Grosvenor Place, NSW,-33.74,151.03
1218, Grosvenor Place, NSW,-33.74,151.03
1217, Grosvenor Place, NSW,-33.74,151.03
1216, Grosvenor Place, NSW,-33.74,151.03
2770, Bidwill, NSW,-33.73,150.82
2763, Acacia Gardens, NSW,-33.73,150.91
2761, Colebee, NSW,-33.73,150.87
2751, Penrith, NSW,-33.73,151.28
2154, Castle Hill, NSW,-33.73,151.01
2075, St Ives, NSW,-33.73,151.16
2013, Strawberry Hills, NSW,-33.73,150.93
2012, Strawberry Hills, NSW,-33.73,150.93
1429, Strawberry Hills, NSW,-33.73,150.93
1428, Strawberry Hills, NSW,-33.73,150.93
1427, Strawberry Hills, NSW,-33.73,150.93
1426, Strawberry Hills, NSW,-33.73,150.93
1425, Strawberry Hills, NSW,-33.73,150.93
1424, Strawberry Hills, NSW,-33.73,150.93
1423, Strawberry Hills, NSW,-33.73,150.93
1422, Strawberry Hills, NSW,-33.73,150.93
1420, Strawberry Hills, NSW,-33.73,150.93
5464, Anama, SA,-33.72,138.55
2784, Bullaburra, NSW,-33.72,150.41
2783, Lawson, NSW,-33.72,150.43
2779, Hazelbrook, NSW,-33.72,150.45
2126, Cherrybrook, NSW,-33.72,151.04
2076, Normanhurst, NSW,-33.72,151.1
5455, Hilltown, SA,-33.71,138.65
2797, Garland, NSW,-33.71,149.03
2782, Wentworth Falls, NSW,-33.71,150.38
2780, Katoomba, NSW,-33.71,150.31
2074, North Turramurra, NSW,-33.71,151.15
1630, Hornsby, NSW,-33.71,151.1
1435, Alexandria, NSW,-33.71,151.11
6395, Cherry Tree Pool, WA,-33.7,117.23
6243, Wilga, WA,-33.7,116.29
2776, Faulconbridge, NSW,-33.7,150.53
2762, Schofields, NSW,-33.7,150.89
2155, Beaumont Hills, NSW,-33.7,150.95
2101, Elanora Heights, NSW,-33.7,151.28
1660, Mona Vale, NSW,-33.7,151.22
1658, Mona Vale, NSW,-33.7,151.22
2102, Warriewood, NSW,-33.69,151.3
2077, Asquith, NSW,-33.69,151.11
6280, Abba River, WA,-33.68,115.46
5602, Cowell, SA,-33.68,136.93
2804, Billimari, NSW,-33.68,148.62
2711, Booligal, NSW,-33.68,144.75
2158, Dural, NSW,-33.68,151.03
2103, Mona Vale, NSW,-33.68,151.3
2777, Hawkesbury Heights, NSW,-33.67,150.65
2765, Berkshire Park, NSW,-33.67,150.8
2749, Castlereagh, NSW,-33.67,150.68
1116, Sydney, NSW,-33.67,150.87
6850, Cloisters Square Po, WA,-33.66,115.33
2156, Annangrove, NSW,-33.66,150.94
2106, Newport, NSW,-33.66,151.31
2104, Bayview, NSW,-33.66,151.3
2079, Mount Colah, NSW,-33.66,151.12
1132, Sydney, NSW,-33.66,150.87
1117, Sydney, NSW,-33.66,150.87
1032, Sydney, NSW,-33.66,150.87
6343, Pingrup, WA,-33.65,118.52
6282, Yallingup, WA,-33.65,115.03
5417, Baldina, SA,-33.65,139.06
2805, Gooloogong, NSW,-33.65,148.41
2799, Barry, NSW,-33.65,149.27
6448, Gibson, WA,-33.64,121.81
2785, Blackheath, NSW,-33.64,150.28
2756, Bligh Park, NSW,-33.64,150.79
2107, Avalon, NSW,-33.64,151.33
2105, Church Point, NSW,-33.64,151.28
6985, Cloverdale, WA,-33.63,115.6
6317, Badgebup, WA,-33.63,117.9
2080, Mount Kuring-Gai, NSW,-33.63,151.23
6281, Dunsborough, WA,-33.62,115.11
5670, Bramfield, SA,-33.62,134.99
2753, Agnes Banks, NSW,-33.62,150.71
2159, Arcadia, NSW,-33.62,151.05
2084, Cottage Point, NSW,-33.62,151.2
2081, Berowra, NSW,-33.62,151.15
2791, Carcoar, NSW,-33.61,149.14
2082, Berowra Creek, NSW,-33.61,151.14
5454, Andrews, SA,-33.6,138.63
2755, Richmond Raaf, NSW,-33.6,150.8
2108, Coasters Retreat, NSW,-33.6,151.3
2792, Burnt Yards, NSW,-33.59,149.03
2754, North Richmond, NSW,-33.58,150.72
6394, Beaufort River, WA,-33.57,117.03
5470, Yacka, SA,-33.57,138.41
6271, Capel, WA,-33.56,115.56
6240, Lowden, WA,-33.56,115.99
5633, Boonerdo, SA,-33.56,135.98
6239, Argyle, WA,-33.55,115.77
5522, Fisherman Bay, SA,-33.55,137.94
2757, Kurmond, NSW,-33.55,150.7
6341, Nyabing, WA,-33.54,118.15
5521, Redhill, SA,-33.54,138.22
2758, Berambing, NSW,-33.54,150.44
6393, Duranillin, WA,-33.51,116.68
2786, Bell, NSW,-33.51,150.28
2257, Booker Bay, NSW,-33.51,151.34
2157, Canoelands, NSW,-33.51,151.06
2083, Bar Point, NSW,-33.51,151.16
6316, Boyerine, WA,-33.5,117.41
5640, Campoona, SA,-33.5,136.45
2871, Bandon, NSW,-33.5,148.31
2669, Erigolia, NSW,-33.5,146.8
2256, Blackwall, NSW,-33.5,151.33
6237, Boyanup, WA,-33.48,115.73
2675, Hillston, NSW,-33.48,145.53
6392, Bokal, WA,-33.47,116.91
6236, Crooked Brook, WA,-33.47,115.81
5642, Darke Peak, SA,-33.47,136.2
5471, Gulnare, SA,-33.47,138.48
2251, Avoca Beach, NSW,-33.46,151.43
6355, Dunn Rock, WA,-33.43,119.52
2806, Eugowra, NSW,-33.43,148.37
2260, Erina Heights, NSW,-33.43,151.41
2845, Wallerawang, NSW,-33.41,150.06
5419, Canowie, SA,-33.39,138.76
2672, Curlew Waters, NSW,-33.39,146.58
2261, Bateau Bay, NSW,-33.38,151.48
5472, Georgetown, SA,-33.37,138.43
6231, Bunbury, WA,-33.36,115.66
6447, Lort River, WA,-33.35,121.39
6229, Picton, WA,-33.35,115.69
5418, Collinsville, SA,-33.35,139.11
2847, Portland, NSW,-33.35,149.98
6315, Arthur River, WA,-33.34,117.03
6228, Waterloo, WA,-33.34,115.77
6225, Allanson, WA,-33.34,116.1
2798, Byng, NSW,-33.34,149.25
2258, Fountaindale, NSW,-33.34,151.39
6230, Bunbury, WA,-33.33,115.64
2775, Central Macdonald, NSW,-33.33,150.98
1655, Manly, NSW,-33.33,151.51
6232, Eaton, WA,-33.32,115.7
6350, Dumbleyung, WA,-33.31,117.74
6227, Burekup, WA,-33.31,115.81
6226, Roelands, WA,-33.29,115.83
1590, St Leonards, NSW,-33.29,151.47
6233, Australind, WA,-33.28,115.71
5473, Gladstone, SA,-33.28,138.35
5491, Belalie East, SA,-33.27,138.65
2263, Canton Beach, NSW,-33.27,151.54
2259, Alison, NSW,-33.27,151.4
5523, Beetaloo, SA,-33.26,138.25
6446, Grass Patch, WA,-33.23,121.72
6224, Beela, WA,-33.23,115.91
2864, Boree, NSW,-33.23,148.84
2790, Ben Bullen, NSW,-33.22,150.02
5650, Cootra, SA,-33.21,135.96
2262, Blue Haven, NSW,-33.21,151.49
5654, Cocata, SA,-33.2,135.15
5540, Bungama, SA,-33.2,138.07
6352, Kukerin, WA,-33.19,118.08
6351, Moulyinning, WA,-33.19,117.92
5641, Barna, SA,-33.18,136.62
5490, Caltowie, SA,-33.18,138.48
5420, Canowie Belt, SA,-33.18,138.76
2866, Amaroo, NSW,-33.18,148.93
6223, Benger, WA,-33.17,115.86
6221, Mornington, WA,-33.15,115.94
2846, Capertee, NSW,-33.15,149.99
5671, Baird Bay, SA,-33.14,134.36
5651, Kyancutta, SA,-33.13,135.56
5421, Franklyn, SA,-33.13,139.08
2800, Belgravia, NSW,-33.12,149.03
2876, Bogan Gate, NSW,-33.11,147.8
2250, Bucketty, NSW,-33.11,151.14
2865, Bocobra, NSW,-33.1,148.54
2264, Balcolyn, NSW,-33.1,151.55
6356, Hatter Hill, WA,-33.09,119.66
2877, Boona Mount, NSW,-33.09,147.15
2281, Blacksmiths, NSW,-33.08,151.65
2265, Cooranbong, NSW,-33.08,151.45
2267, Wangi Wangi, NSW,-33.07,151.58
6313, Highbury, WA,-33.06,117.15
2283, Arcadia Vale, NSW,-33.06,151.58
5480, Appila, SA,-33.05,138.43
6391, Quindanning, WA,-33.04,116.57
2280, Belmont, NSW,-33.04,151.66
5609, Whyalla Jenkins, SA,-33.03,137.55
5608, Whyalla Norrie, SA,-33.03,137.53
5493, Yongala, SA,-33.03,138.75
6353, Beenong, WA,-33.02,118.66
6220, Cookernup, WA,-33,115.89
2306, Windale, NSW,-33,151.68
2290, Bennetts Green, NSW,-33,151.69
2282, Eleebana, NSW,-32.99,151.64
2849, Bogee, NSW,-32.98,150.1
2848, Brogans Creek, NSW,-32.97,149.96
6218, Yarloop, WA,-32.96,115.9
6312, Boundain, WA,-32.95,117.36
5481, Bangor, SA,-32.95,138.16
5600, Blacky Point, SA,-32.94,137.58
2300, Bar Beach, NSW,-32.94,151.77
2291, Merewether, NSW,-32.94,151.75
6361, Harrismith, WA,-32.93,117.88
2870, Alectown, NSW,-32.93,148.26
2305, Kotara East, NSW,-32.93,151.71
2289, Adamstown, NSW,-32.93,151.73
2285, Cameron Park, NSW,-32.93,151.66
2284, Argenton, NSW,-32.93,151.63
2278, Barnsley, NSW,-32.93,151.59
6452, Buraminya, WA,-32.92,122.9
5495, Baroota, SA,-32.92,137.98
2303, Hamilton, NSW,-32.92,151.75
2302, Newcastle West, NSW,-32.92,151.76
2294, Carrington, NSW,-32.92,151.77
2292, Broadmeadow, NSW,-32.92,151.74
6445, North Cascade, WA,-32.91,121.1
2298, Georgetown, NSW,-32.91,151.73
2297, Tighes Hill, NSW,-32.91,151.75
2296, Islington, NSW,-32.91,151.75
2293, Maryville, NSW,-32.91,151.75
2286, Holmesville, NSW,-32.91,151.58
2299, Jesmond, NSW,-32.9,151.69
2287, Birmingham Gardens, NSW,-32.89,151.69
6215, Hamel, WA,-32.88,115.92
5482, Booleroo Centre, SA,-32.88,138.35
2307, Shortland, NSW,-32.88,151.69
2304, Kooragang, NSW,-32.88,151.75
6363, Dudinin, WA,-32.87,117.9
2867, Baldry, NSW,-32.87,148.5
2850, Aarons Pass, NSW,-32.86,149.8
2295, Fern Bay, NSW,-32.85,151.81
2325, Aberdare, NSW,-32.84,151.38
5483, Melrose, SA,-32.83,138.19
2878, Ivanhoe, NSW,-32.83,143.86
2327, Kurri Kurri, NSW,-32.82,151.48
2326, Abermain, NSW,-32.81,151.43
2322, Beresfield, NSW,-32.8,151.66
2314, Williamtown Raaf, NSW,-32.8,151.84
5652, Paney, SA,-32.79,135.38
2875, Bruie Plains, NSW,-32.78,147.86
2316, Anna Bay, NSW,-32.78,152.08
6370, East Wickepin, WA,-32.77,117.71
6311, Commodine, WA,-32.77,117.31
2323, Ashtonfield, NSW,-32.77,151.6
2318, Campvale, NSW,-32.77,151.85
6357, Pingaring, WA,-32.76,118.63
2321, Berry Park, NSW,-32.76,151.65
5601, Iron Knob, SA,-32.75,137.17
2868, Bournewood, NSW,-32.75,148.75
6214, Birchmont, WA,-32.73,115.76
5700, Blanche Harbor, SA,-32.73,137.92
5422, Cavenagh, SA,-32.73,139
2869, Peak Hill, NSW,-32.73,148.19
2319, Lemon Tree Passage, NSW,-32.73,152.04
2317, Salamander Bay, NSW,-32.72,152.08
2315, Corlette, NSW,-32.72,152.11
2651, Forest Hill, NSW,-32.71,151.55
6211, Bouvard, WA,-32.69,115.65
2331, Singleton Military Area, NSW,-32.69,151.18
2320, Aberglasslyn, NSW,-32.69,151.53
6365, Jilakin, WA,-32.68,118.44
6308, Codjatotine, WA,-32.68,116.82
2334, Greta, NSW,-32.68,151.39
6390, Bannister, WA,-32.67,116.52
2324, Balickera, NSW,-32.67,151.81
5485, Wilmington, SA,-32.65,138.1
2335, Belford, NSW,-32.65,151.28
6208, Blythewood, WA,-32.64,115.87
6309, East Popanyinning, WA,-32.63,117.26
2874, Tullamore, NSW,-32.63,147.56
6213, Banksiadale, WA,-32.62,116.08
5660, Chilpenunda, SA,-32.61,134.5
6372, Yealering, WA,-32.6,117.68
5431, Amyton, SA,-32.6,138.33
2820, Apsley, NSW,-32.6,148.96
5655, Bockelberg, SA,-32.58,135.05
6924, Greenwood, WA,-32.56,115.8
6209, Barragup, WA,-32.56,115.77
6210, Coodanup, WA,-32.55,115.75
5710, Arkaroola Village, SA,-32.54,137.74
2425, Allworth, NSW,-32.54,151.96
2421, Fishers Hill, NSW,-32.51,151.53
2330, Appletree Flat, NSW,-32.51,150.86
6373, Bullaring, WA,-32.5,117.74
6367, Kondinin, WA,-32.5,118.27
6358, Karlgarin, WA,-32.5,118.71
6207, Myara, WA,-32.49,116.07
2423, Bombah Point, NSW,-32.49,152.28
6443, Balladonia, WA,-32.47,123.83
2328, Bureen, NSW,-32.46,150.74
6175, Singleton, WA,-32.45,115.76
5433, Bruce, SA,-32.45,138.2
6359, Forrestania, WA,-32.44,119.78
6126, Keysbrook, WA,-32.44,115.98
6174, Golden Bay, WA,-32.43,115.75
2420, Alison, NSW,-32.43,151.77
2873, Albert, NSW,-32.42,147.51
6911, Cottesloe, WA,-32.4,115.76
6173, Secret Harbour, WA,-32.4,115.75
2333, Baerami, NSW,-32.39,150.47
6172, Port Kennedy, WA,-32.38,115.75
6306, Aldersyde, WA,-32.37,117.31
6176, Karnup, WA,-32.36,115.91
6125, Hopeland, WA,-32.36,115.9
5680, Carawa, SA,-32.36,134.24
5661, Koolgera, SA,-32.36,134.74
2311, Allynbrook, NSW,-32.36,151.54
2428, Blueys Beach, NSW,-32.35,152.54
6124, Jarrahdale, WA,-32.34,116.07
6171, Baldivis, WA,-32.33,115.82
6169, Safety Bay, WA,-32.3,115.71
6168, Cooloongup, WA,-32.3,115.76
6123, Mundijong, WA,-32.3,115.99
6038, Alkimos, WA,-32.29,115.72
2415, Monkerai, NSW,-32.29,151.86
6531, Geraldton Po, WA,-32.28,115.74
6969, Rockingham Beach, WA,-32.26,115.75
6170, Leda, WA,-32.26,115.81
2879, Menindee, NSW,-32.26,142.41
6375, Adamsvale, WA,-32.25,117.72
6167, Anketell, WA,-32.23,115.87
5432, Belton, SA,-32.23,138.71
6122, Byford, WA,-32.22,116.01
6368, South Kumminin, WA,-32.21,118.33
6121, Oakford, WA,-32.21,115.92
2830, Ballimore, NSW,-32.2,148.9
6165, Hope Valley, WA,-32.19,115.8
2852, Barneys Reef, NSW,-32.19,149.53
6304, Bally Bally, WA,-32.18,117.12
2336, Aberdeen, NSW,-32.16,150.89
6112, Armadale, WA,-32.15,116.01
2312, Minimbah, NSW,-32.15,152.36
6966, Kwinana, WA,-32.14,115.86
6428, Babakin, WA,-32.13,118.02
6164, Atwell, WA,-32.13,115.86
6166, Coogee, WA,-32.12,115.77
2844, Birriwa, NSW,-32.12,149.47
6968, Rockingham, WA,-32.11,115.78
6111, Ashendon, WA,-32.1,116.19
6163, Bibra Lake, WA,-32.09,115.84
6963, Hamilton Hill, WA,-32.08,115.79
5440, Cockburn, SA,-32.08,141
6959, Fremantle, WA,-32.07,115.99
6951, South Perth, WA,-32.07,115.82
6369, Mount Walker, WA,-32.07,118.76
6162, Beaconsfield, WA,-32.07,115.76
6110, Gosnells, WA,-32.07,116
2430, Black Head, NSW,-32.07,152.54
6990, Gosnells, WA,-32.06,116.01
6155, Canning Vale, WA,-32.06,115.92
6150, Bateman, WA,-32.06,115.84
6149, Bull Creek, WA,-32.06,115.86
2821, Burroway, NSW,-32.06,148.26
6988, Thornlie, WA,-32.05,115.96
6332, Albany Po, WA,-32.05,115.97
6109, Maddington, WA,-32.05,115.98
6108, Thornlie, WA,-32.05,115.96
6989, Maddington, WA,-32.04,116.01
6160, Fremantle, WA,-32.04,115.76
6158, East Fremantle, WA,-32.04,115.76
6147, Langford, WA,-32.04,115.94
6419, Ardath, WA,-32.03,118.1
6159, North Fremantle, WA,-32.03,115.75
6157, Bicton, WA,-32.03,115.78
6156, Attadale, WA,-32.03,115.8
6154, Alfred Cove, WA,-32.03,115.81
6148, Ferndale, WA,-32.03,115.92
2835, Bulla, NSW,-32.03,144.44
6964, Success, WA,-32.02,115.86
6153, Applecross, WA,-32.02,115.83
6912, Mosman Park, WA,-32.01,115.76
6161, Rottnest Island, WA,-32.01,115.5
6107, Beckenham, WA,-32.01,115.96
6076, Bickley, WA,-32.01,116.09
6012, Mosman Park, WA,-32.01,115.76
6102, Bentley, WA,-32,115.92
6011, Cottesloe, WA,-32,115.76
6956, Melville, WA,-31.99,115.85
6848, Perth, WA,-31.99,115.76
6847, Perth, WA,-31.99,115.76
6846, Perth, WA,-31.99,115.76
6845, Perth, WA,-31.99,115.76
6844, Perth, WA,-31.99,115.76
6843, Perth, WA,-31.99,115.76
6842, Perth, WA,-31.99,115.76
6841, Perth, WA,-31.99,115.76
6840, Perth, WA,-31.99,115.76
6839, Perth, WA,-31.99,115.76
6838, Perth, WA,-31.99,115.76
6837, Perth, WA,-31.99,115.76
6830, Perth, WA,-31.99,115.76
6827, Perth, WA,-31.99,115.76
6820, Perth, WA,-31.99,115.76
6817, Perth, WA,-31.99,115.76
6809, Perth, WA,-31.99,115.76
6800, Perth, WA,-31.99,115.76
6152, Como, WA,-31.99,115.87
6151, Kensington, WA,-31.99,115.88
6106, Welshpool, WA,-31.99,115.95
6058, Forrestfield, WA,-31.99,116.01
6001, Perth, WA,-31.99,115.76
2337, Belltrees, NSW,-31.99,151.12
6910, Claremont, WA,-31.98,115.77
6906, North Perth, WA,-31.98,115.76
6101, Carlisle, WA,-31.98,115.91
6010, Claremont, WA,-31.98,115.78
6009, Broadway Nedlands, WA,-31.98,115.81
6006, North Perth, WA,-31.98,115.76
6984, Belmont, WA,-31.97,115.93
6005, Kings Park, WA,-31.97,115.84
2422, Back Creek, NSW,-31.97,152.07
6992, Armadale, WA,-31.96,115.92
6832, Perth Adelaide Tce, WA,-31.96,115.87
6831, Perth St Georges Tce, WA,-31.96,115.86
6105, Cloverdale, WA,-31.96,115.93
6103, Rivervale, WA,-31.96,115.91
6100, Burswood, WA,-31.96,115.9
2880, Broken Hill, NSW,-31.96,141.47
6981, East Victoria Park, WA,-31.95,115.88
6979, Victoria Park, WA,-31.95,115.9
6929, Mount Lawley, WA,-31.95,115.85
6915, Mount Hawthorn, WA,-31.95,115.85
6384, Pantapin, WA,-31.95,117.66
6008, Daglish, WA,-31.95,115.81
6926, Kalamunda, WA,-31.94,116.01
6904, Subiaco Po, WA,-31.94,115.83
6901, West Leederville, WA,-31.94,115.88
6872, West Perth, WA,-31.94,115.88
6104, Ascot, WA,-31.94,115.92
6057, High Wycombe, WA,-31.94,116.01
6015, City Beach, WA,-31.94,115.75
6014, Floreat, WA,-31.94,115.79
6007, Leederville, WA,-31.94,115.84
6004, East Perth, WA,-31.94,115.88
6003, Highgate, WA,-31.94,115.87
2825, Babinda, NSW,-31.94,146.48
6386, Shackleton, WA,-31.93,117.84
6385, Kwolyin, WA,-31.93,117.76
6051, Maylands, WA,-31.93,115.89
6935, Guildford, WA,-31.92,115.92
6934, Bassendean, WA,-31.92,115.92
6932, Inglewood, WA,-31.92,115.88
6070, Darlington, WA,-31.92,116.08
6054, Ashfield, WA,-31.92,115.94
6053, Bayswater, WA,-31.92,115.91
6018, Churchlands, WA,-31.92,115.79
6016, Glendalough, WA,-31.92,115.81
6000, City Delivery Centre, WA,-31.92,115.91
6933, Bayswater, WA,-31.91,115.9
6071, Glen Forrest, WA,-31.91,116.1
6060, Dog Swamp, WA,-31.91,115.85
6052, Bedford, WA,-31.91,115.89
6050, Coolbinia, WA,-31.91,115.86
6017, Herdsman, WA,-31.91,115.81
6940, Tuart Hill, WA,-31.9,115.85
6939, Tuart Hill, WA,-31.9,115.85
6938, Tuart Hill, WA,-31.9,115.85
6937, Tuart Hill, WA,-31.9,115.85
6922, Scarborough, WA,-31.9,115.8
6383, Badjaling, WA,-31.9,117.44
6074, Sawyers Valley, WA,-31.9,116.2
6073, Mundaring, WA,-31.9,116.17
6062, Embleton, WA,-31.9,115.92
6952, Como, WA,-31.89,115.82
6943, Morley, WA,-31.89,115.89
6917, Osborne Park, WA,-31.89,115.8
6916, Osborne Park, WA,-31.89,115.8
6019, Scarborough, WA,-31.89,115.76
6921, Karrinyup, WA,-31.88,115.79
6433, Hannans Po, WA,-31.88,115.92
6418, Bruce Rock, WA,-31.88,118.15
6081, Parkerville, WA,-31.88,116.15
6059, Dianella, WA,-31.88,115.86
6029, Trigg, WA,-31.88,115.75
6982, Bentley, WA,-31.87,116.17
6072, Mahogany Creek, WA,-31.87,116.18
6063, Beechboro, WA,-31.87,115.92
6055, Caversham, WA,-31.87,115.98
6944, Malaga, WA,-31.86,115.9
6920, North Beach, WA,-31.86,115.78
6914, Balcatta, WA,-31.86,115.82
6556, Beechina, WA,-31.86,116.32
6090, Malaga, WA,-31.86,115.89
6061, Balga, WA,-31.86,115.84
6021, Balcatta, WA,-31.86,115.82
6302, Badgin, WA,-31.85,117.01
6034, Eglinton, WA,-31.85,115.81
6022, Hamersley, WA,-31.85,115.8
6020, Carine, WA,-31.85,115.78
6941, Mirrabooka, WA,-31.84,115.86
6066, Ballajura, WA,-31.84,115.89
5690, Bookabie, SA,-31.84,132.68
2823, Bundemar, NSW,-31.84,148.18
2427, Crowdy Head, NSW,-31.84,152.74
6068, Whiteman, WA,-31.83,115.94
6064, Alexander Heights, WA,-31.83,115.87
6024, Greenwood, WA,-31.83,115.8
6023, Duncraig, WA,-31.83,115.77
2426, Coopernook, NSW,-31.83,152.61
6067, Cullacabardee, WA,-31.82,115.91
2842, Mendooran, NSW,-31.82,149.12
6026, Kingsley, WA,-31.81,115.79
6558, Wooroloo, WA,-31.8,116.31
6420, Cramphorne, WA,-31.8,118.56
6056, Baskerville, WA,-31.8,116.03
5434, Barndioota, SA,-31.8,138.36
2424, Caffreys Flat, NSW,-31.8,152.07
6083, Gidgegannup, WA,-31.79,116.2
6892, East Perth, WA,-31.78,115.82
6180, Lakelands, WA,-31.78,115.86
6027, Beldon, WA,-31.78,115.76
6025, Craigie, WA,-31.78,115.77
6069, Aveley, WA,-31.77,116.01
2843, Coolah, NSW,-31.77,149.61
2339, Big Jacks Creek, NSW,-31.77,150.62
6562, Bakers Hill, WA,-31.75,116.46
6560, Wundowie, WA,-31.75,116.39
6082, Bailup, WA,-31.74,116.3
6065, Ashby, WA,-31.73,115.79
6028, Burns Beach, WA,-31.73,115.72
2429, Bobin, NSW,-31.73,152.28
2338, Ardglen, NSW,-31.73,150.79
6564, Clackline, WA,-31.72,116.51
6031, Banksia Grove, WA,-31.7,115.81
6030, Clarkson, WA,-31.68,115.72
2824, Beemunnel, NSW,-31.67,147.86
2827, Bearbong, NSW,-31.66,148.88
2439, Batar Creek, NSW,-31.66,152.68
2343, Blackville, NSW,-31.66,150.3
6407, Cunderdin, WA,-31.65,117.23
6036, Butler, WA,-31.65,115.71
6032, Nowergup, WA,-31.64,115.74
6946, Wanneroo, WA,-31.62,115.72
6410, Daadenning Creek, WA,-31.62,117.59
6084, Avon Valley National Park, WA,-31.62,116.21
6411, Doodlakine, WA,-31.61,117.88
6501, Muchea, WA,-31.6,115.99
6403, Grass Valley, WA,-31.6,116.81
6033, Carabooda, WA,-31.6,115.75
2445, Bonny Hills, NSW,-31.59,152.84
6412, Baandee, WA,-31.58,117.99
2443, Bobs Creek, NSW,-31.58,152.74
6425, Dulyalbin, WA,-31.56,119.15
6035, Yanchep, WA,-31.55,115.63
2898, Lord Howe Island, NSW,-31.55,159.08
2395, Binnaway, NSW,-31.55,149.38
6401, Buckland, WA,-31.54,116.61
6413, Hines Hill, WA,-31.53,118.08
6409, North Tammin, WA,-31.52,117.43
6405, Greenwoods Valley, WA,-31.51,116.94
6037, Two Rocks, WA,-31.51,115.6
2357, Bomera, NSW,-31.51,149.79
2329, Cassilis, NSW,-31.51,150.64
2730, Batlow, NSW,-31.49,152.66
6414, Nangeenan, WA,-31.47,118.15
6567, Dewars Pool, WA,-31.46,116.42
2446, Bagnoo, NSW,-31.46,152.53
2831, Armatree, NSW,-31.45,148.41
6503, Bambun, WA,-31.42,115.9
6421, Burracoppin, WA,-31.4,118.48
2444, Blackmans Point, NSW,-31.4,152.85
6502, Bindoon, WA,-31.39,116.1
6566, Bejoording, WA,-31.38,116.53
6424, Bodallin, WA,-31.37,118.85
6422, Walgoolan, WA,-31.37,118.6
6041, Caraban, WA,-31.35,115.53
2341, Werris Creek, NSW,-31.35,150.62
6504, Mooliabeenee, WA,-31.33,116.03
6460, Goomalling, WA,-31.3,116.83
6480, Nukarni, WA,-31.29,118.2
6568, Bolgart, WA,-31.27,116.51
6462, Hindmarsh, WA,-31.27,117.23
2354, Kentucky, NSW,-31.27,151.55
6490, Burran Rock, WA,-31.26,118.01
5720, Pimba, SA,-31.26,136.8
2342, Currabubula, NSW,-31.26,150.73
6042, Seabird, WA,-31.25,115.45
6415, Goomarin, WA,-31.24,118.41
2381, Breeza, NSW,-31.24,150.46
2344, Duri, NSW,-31.22,150.82
6442, Kambalda East, WA,-31.21,121.62
6461, Dowerin, WA,-31.2,117.03
6043, Breton Bay, WA,-31.2,115.42
6505, Wannamal, WA,-31.17,115.93
6426, Corinthia, WA,-31.15,119.15
6463, Benjaberring, WA,-31.14,117.29
2829, Billeroy, NSW,-31.12,148.37
6489, Kununoppin, WA,-31.11,117.92
6427, Koolyanobbing, WA,-31.11,119.4
2828, Black Hollow, NSW,-31.11,148.86
6569, Calingiri, WA,-31.09,116.45
2379, Goolhi, NSW,-31.07,149.71
6487, North Yelbeni, WA,-31.06,117.66
2440, Aldavilla, NSW,-31.06,152.77
2352, Kootingal, NSW,-31.06,151.05
6044, Karakin, WA,-31.05,115.42
6488, North Trayning, WA,-31.04,117.79
6506, Mogumber, WA,-31.02,115.96
6603, Konnongorring, WA,-31.01,116.76
6423, Boodarockin, WA,-31,118.86
6485, Cowcowing, WA,-30.99,117.45
6484, Bullfinch, WA,-30.98,119.12
2340, Appleby, NSW,-30.96,150.83
6429, Boorabbin, WA,-30.95,120.16
2353, Moonbi, NSW,-30.95,151.05
2396, Baradine, NSW,-30.94,149.07
2345, Attunga, NSW,-30.93,150.85
6571, Yerecoin, WA,-30.92,116.39
6509, Glentromie, WA,-30.89,116.24
2431, Arakoon, NSW,-30.89,153.07
6479, Barbalin, WA,-30.88,118.11
2355, Bendemeer, NSW,-30.88,151.16
6465, Manmanning, WA,-30.87,117.04
2441, Allgomera, NSW,-30.82,152.83
6477, Bencubbin, WA,-30.81,117.86
6430, Binduli, WA,-30.81,121.38
5730, Beltana, SA,-30.81,138.4
2836, White Cliffs, NSW,-30.81,142.88
6476, Gabbin, WA,-30.8,117.68
6431, Boorara, WA,-30.8,121.64
2447, Bakers Creek, NSW,-30.8,152.73
2380, Blue Vale, NSW,-30.8,150.2
6432, Boulder, WA,-30.78,121.49
6466, Cadoux, WA,-30.77,117.14
6507, Cataby, WA,-30.74,115.54
6510, Barberton, WA,-30.73,116.03
6605, Kondut, WA,-30.71,116.7
2382, Boggabri, NSW,-30.7,150.04
6475, Badgerin Rock, WA,-30.69,117.27
6574, Bindi Bindi, WA,-30.63,116.36
2449, Argents Hill, NSW,-30.62,152.75
2448, Hyland Park, NSW,-30.62,153
2356, Gwabegar, NSW,-30.62,148.97
2346, Borah Creek, NSW,-30.61,150.51
6606, Ballidu, WA,-30.6,116.77
2390, Baan Baa, NSW,-30.6,149.97
2358, Arding, NSW,-30.59,151.56
5732, Copley, SA,-30.55,138.42
6467, Burakin, WA,-30.53,117.17
2347, Banoon, NSW,-30.53,150.44
2455, Urunga, NSW,-30.52,152.98
6511, Cervantes, WA,-30.5,115.08
6434, Cundeelee, WA,-30.5,123.12
6575, Miling, WA,-30.49,116.36
2351, University Of New England, NSW,-30.49,151.64
6608, East Damboring, WA,-30.48,116.81
5725, Olympic Dam, SA,-30.46,136.88
6472, Beacon, WA,-30.45,117.87
5722, Andamooka, SA,-30.45,137.16
2454, Bellingen, NSW,-30.45,152.9
6512, Coomberdale, WA,-30.44,116.04
6521, Badgingarra, WA,-30.39,115.5
2309, Dangar, NSW,-30.35,148.89
6470, Kulja, WA,-30.34,117.34
2452, Boambee East, NSW,-30.34,153.08
2450, Boambee, NSW,-30.34,153.07
6473, North Wialki, WA,-30.33,118.22
6516, Jurien Bay, WA,-30.31,115.04
1450, Camperdown, NSW,-30.31,153.14
6609, Dalwallinu, WA,-30.28,116.66
2350, Aberfoyle, NSW,-30.24,152.01
2839, Bogan, NSW,-30.2,146.54
6513, Gunyidi, WA,-30.15,116.08
2453, Bielsdown Hills, NSW,-30.14,152.6
6468, Goodlands, WA,-30.11,117.21
2386, Burren Junction, NSW,-30.11,148.97
2388, Boolcarroll, NSW,-30.09,149.44
2365, Backwater, NSW,-30.08,151.88
5733, Farina, SA,-30.07,138.28
6514, Green Head, WA,-30.06,114.97
2456, Arrawarra, NSW,-30.06,153.19
6612, Jibberding, WA,-30.02,116.78
2359, Aberdeen, NSW,-30,151.08
6613, Buntine, WA,-29.99,116.57
2397, Bellata, NSW,-29.92,149.79
2369, Old Mill, NSW,-29.91,151.21
6614, Maya, WA,-29.88,116.5
6515, Coorow, WA,-29.88,116.02
2360, Auburn Vale, NSW,-29.84,151.04
6518, Eneabba, WA,-29.82,115.27
1240, Haymarket, NSW,-29.82,151.66
1239, Haymarket, NSW,-29.82,151.66
1238, Haymarket, NSW,-29.82,151.66
1237, Haymarket, NSW,-29.82,151.66
1236, Haymarket, NSW,-29.82,151.66
1208, Haymarket, NSW,-29.82,151.66
2404, Bangheet, NSW,-29.8,150.48
2387, Bulyeroi, NSW,-29.78,149.09
6616, Latham, WA,-29.76,116.44
2398, Gurley, NSW,-29.74,149.8
6517, Carnamah, WA,-29.69,115.89
6436, Menzies, WA,-29.69,121.03
2403, Delungra, NSW,-29.65,150.83
2370, Bald Nob, NSW,-29.64,151.96
2462, Calliope, NSW,-29.62,153.07
2401, Gravesend, NSW,-29.58,150.34
2399, Biniguy, NSW,-29.58,150.14
2833, Collarenebri, NSW,-29.55,148.58
2402, Balfours Peak, NSW,-29.51,150.75
2464, Angourie, NSW,-29.48,153.36
6620, Perenjori, WA,-29.44,116.29
6519, Arrino, WA,-29.44,115.63
2834, Angledool, NSW,-29.43,147.98
2465, Harwood, NSW,-29.42,153.24
2463, Ashby, NSW,-29.42,153.19
2466, Iluka, NSW,-29.41,153.35
2371, Capoompeta, NSW,-29.39,152.04
2469, Alice, NSW,-29.34,153
6623, Bowgada, WA,-29.33,116.15
2400, Ashley, NSW,-29.32,149.81
2361, Ashford, NSW,-29.32,151.1
6522, Bundanoon, WA,-29.3,115.49
2840, Bourke, NSW,-29.19,145.88
2411, Croppa Creek, NSW,-29.13,150.38
2832, Come By Chance, NSW,-29.11,147.9
2473, Bundjalung, NSW,-29.09,153.38
6525, Allanooka, WA,-29.05,115.03
2471, Bora Ridge, NSW,-29.05,153.23
2460, Alumy Creek, NSW,-29.05,152.59
2410, Twin Rivers, NSW,-29.05,150.64
5723, Coober Pedy, SA,-29.04,134.72
2472, Broadwater, NSW,-29.01,153.44
4493, Hungerford, QLD,-29,144.41
2406, Mungindi, NSW,-29,149.1
6528, Mount Hill, WA,-28.98,114.91
2408, Blue Nobby, NSW,-28.93,150.39
2372, Back Creek, NSW,-28.93,151.7
6627, Canna, WA,-28.9,115.86
4383, Jennings, NSW,-28.88,151.91
2478, Ballina, NSW,-28.87,153.56
4490, Barringun, QLD,-28.84,145.82
2477, Alstonvale, NSW,-28.81,153.45
4382, Ballandean, QLD,-28.8,151.84
6628, Tardun, WA,-28.79,115.75
6530, Beachlands, WA,-28.79,114.6
4381, Glen Aplin, QLD,-28.74,151.87
2409, Boggabilla, NSW,-28.74,150.42
4384, Limevale, QLD,-28.73,151.18
2470, Babyl Creek, NSW,-28.73,152.8
2405, Boomi, NSW,-28.73,149.58
4385, Beebo, QLD,-28.72,150.97
2481, Broken Head, NSW,-28.72,153.59
6632, Ambania, WA,-28.7,115.12
2479, Bangalow, NSW,-28.69,153.52
6630, Devils Creek, WA,-28.64,115.48
4388, Kurumbul, QLD,-28.62,150.55
2475, Tooloom, NSW,-28.62,152.42
4387, Brush Creek, QLD,-28.61,151.13
4380, Amiens, QLD,-28.61,151.9
4378, Applethorpe, QLD,-28.61,151.96
2482, Goonengerry, NSW,-28.61,153.44
2480, Bentley, NSW,-28.61,153.04
4497, Daymar, QLD,-28.6,148.99
4486, Dirranbandi, QLD,-28.59,148.23
2474, Afterlee, NSW,-28.59,152.83
4377, Glen Niven, QLD,-28.58,151.97
4352, Ballard, QLD,-28.58,151.8
4376, Thulimbah, QLD,-28.54,151.93
4375, Cottonvale, QLD,-28.53,151.95
2483, Billinudgel, NSW,-28.5,153.53
4374, Dalveen, QLD,-28.49,151.97
6638, Cooladar Hill, WA,-28.48,118.17
6631, Pindar, WA,-28.48,115.79
4496, North Talwood, QLD,-28.44,149.47
4494, Bungunya, QLD,-28.42,149.66
2484, Back Creek, NSW,-28.4,153.17
2476, Boomi Creek, NSW,-28.37,152.32
2489, Hastings Point, NSW,-28.36,153.58
4373, Killarney, QLD,-28.34,152.29
2488, Bogangar, NSW,-28.33,153.54
4372, Tannymorel, QLD,-28.3,152.23
2487, Casuarina, NSW,-28.3,153.57
2490, North Tumbulgum, NSW,-28.27,153.47
4287, Barney View, QLD,-28.26,152.78
6535, Alma, WA,-28.23,114.69
4371, Emu Vale, QLD,-28.23,152.25
4498, Kioma, QLD,-28.21,149.79
2486, Banora Point, NSW,-28.21,153.54
6639, Sandstone, WA,-28.2,119.65
4370, Allan, QLD,-28.2,151.95
2485, Tweed Heads, NSW,-28.18,153.54
4491, Eulo, QLD,-28.17,145.04
4225, Bilinga, QLD,-28.16,153.51
4390, Billa Billa, QLD,-28.15,150.29
4228, Tallebudgera, QLD,-28.15,153.42
4224, Tugun, QLD,-28.14,153.49
4223, Currumbin, QLD,-28.14,153.48
4221, Elanora, QLD,-28.14,153.47
4213, Austinville, QLD,-28.14,153.32
4227, Reedy Creek, QLD,-28.11,153.4
4219, West Burleigh, QLD,-28.11,153.44
4220, Burleigh BC, QLD,-28.09,153.45
4230, Robina Town Centre, QLD,-28.08,153.39
4229, Bond University, QLD,-28.08,153.41
4357, Bringalily, QLD,-28.06,151.16
4362, Allora, QLD,-28.04,151.98
4226, Clear Island Waters, QLD,-28.04,153.4
4488, Bollon, QLD,-28.03,147.48
4218, Broadbeach, QLD,-28.03,153.43
4211, Advancetown, QLD,-28.03,153.28
4365, Leyburn, QLD,-28.02,151.6
4217, Benowa, QLD,-28.01,153.39
4310, Allandale, QLD,-28,152.71
4275, Benobble, QLD,-28,153.16
4309, Aratula, QLD,-27.98,152.55
4215, Australia Fair, QLD,-27.97,153.42
6532, Ajana, WA,-27.95,114.61
4272, Mount Tamborine, QLD,-27.95,153.19
4214, Arundel, QLD,-27.94,153.37
4210, Guanaba, QLD,-27.94,153.23
4216, Biggera Waters, QLD,-27.93,153.4
4271, Eagle Heights, QLD,-27.92,153.21
4212, Helensvale, QLD,-27.92,153.33
6440, Bandya, WA,-27.91,122.33
4285, Allenview, QLD,-27.9,152.94
4406, Boondandilla, QLD,-27.89,150.6
4361, Back Plains, QLD,-27.89,151.8
4270, Tamborine, QLD,-27.88,153.13
4209, Coomera, QLD,-27.87,153.32
4360, Nobby, QLD,-27.84,151.89
4280, Jimboomba, QLD,-27.83,153.03
4307, Coleyville, QLD,-27.82,152.57
5731, Coopers Creek, SA,-27.8,140.62
6438, Lake Darlot, WA,-27.79,121.58
4359, Budgee, QLD,-27.79,152.02
4492, Bullawarra, QLD,-27.78,143.37
4208, Gilberton, QLD,-27.75,153.26
4125, Munruben, QLD,-27.75,153.03
4133, Chambers Flat, QLD,-27.74,153.09
4207, Alberton, QLD,-27.72,153.27
6536, Kalbarri, WA,-27.71,114.16
4364, Brookstead, QLD,-27.71,151.4
4358, Cambooya, QLD,-27.71,151.86
4205, Bethania, QLD,-27.69,153.16
4132, Crestmead, QLD,-27.69,153.09
4130, Carbrook, QLD,-27.69,153.28
4129, Loganholme, QLD,-27.69,153.18
4124, Boronia Heights, QLD,-27.69,153.02
4363, Southbrook, QLD,-27.68,151.74
4131, Loganlea, QLD,-27.68,153.13
4300, Augustine Heights, QLD,-27.67,152.89
4118, Browns Plains, QLD,-27.66,153.04
4114, Kingston, QLD,-27.66,153.12
4407, Cattle Creek, QLD,-27.65,150.84
4341, Blenheim, QLD,-27.65,152.33
4128, Shailer Park, QLD,-27.65,153.17
4306, Amberley, QLD,-27.64,152.7
4127, Daisy Hill, QLD,-27.64,153.15
4117, Berrinba, QLD,-27.64,153.08
4340, Ashwell, QLD,-27.63,152.56
4304, Blackstone, QLD,-27.63,152.8
4350, Athol, QLD,-27.62,151.77
4165, Mount Cotton, QLD,-27.62,153.24
4116, Calamvale, QLD,-27.62,153.05
4301, Collingwood Park, QLD,-27.61,152.86
4115, Algester, QLD,-27.61,153.03
4112, Kuraby, QLD,-27.61,153.09
4078, Ellen Grove, QLD,-27.61,152.95
4077, Doolandella, QLD,-27.61,152.98
9020, Brisbane, QLD,-27.6,152.82
9015, Brisbane, QLD,-27.6,152.82
9013, Brisbane, QLD,-27.6,152.82
9010, Brisbane, QLD,-27.6,152.82
9009, Brisbane, QLD,-27.6,152.82
9008, Brisbane, QLD,-27.6,152.82
9007, Brisbane, QLD,-27.6,152.82
9005, Brisbane, QLD,-27.6,152.82
9002, Brisbane, QLD,-27.6,152.82
9001, Brisbane, QLD,-27.6,152.82
9000, Brisbane, QLD,-27.6,152.82
4305, Basin Pocket, QLD,-27.6,152.77
4303, Dinmore, QLD,-27.6,152.83
4001, Brisbane, QLD,-27.6,152.82
4344, Carpendale, QLD,-27.59,152.15
4119, Underwood, QLD,-27.59,153.11
4110, Acacia Ridge, QLD,-27.59,153.03
4113, Eight Mile Plains, QLD,-27.58,153.09
4356, Bongeen, QLD,-27.57,151.45
4347, Grantham, QLD,-27.57,152.2
4184, Coochiemudlo Island, QLD,-27.57,153.33
4123, Rochedale, QLD,-27.57,153.13
4109, Macgregor, QLD,-27.57,153.08
4108, Archerfield, QLD,-27.57,153.02
4076, Darra, QLD,-27.57,152.95
4422, Coomrith, QLD,-27.56,149.61
4346, Marburg, QLD,-27.56,152.59
4164, Thornlands, QLD,-27.56,153.26
4156, Burbank, QLD,-27.56,153.16
4074, Jamboree Heights, QLD,-27.56,152.93
5734, Oodnadatta, SA,-27.55,135.45
4345, Gatton College, QLD,-27.55,152.34
4111, Nathan, QLD,-27.55,153.06
4073, Seventeen Mile Rocks, QLD,-27.55,152.96
4072, University Of Queensland, QLD,-27.55,152.33
4070, Anstead, QLD,-27.55,152.87
4342, Crowley Vale, QLD,-27.54,152.38
4122, Mansfield, QLD,-27.54,153.1
4107, Salisbury, QLD,-27.54,153.03
4075, Corinda, QLD,-27.54,152.98
4163, Cleveland, QLD,-27.53,153.26
4157, Capalaba, QLD,-27.53,153.19
4106, Brisbane Market, QLD,-27.53,153
4105, Moorooka, QLD,-27.53,153.03
4161, Alexandra Hills, QLD,-27.52,153.22
4160, Ormiston, QLD,-27.52,153.26
4121, Holland Park, QLD,-27.52,153.06
4104, Yeronga, QLD,-27.52,153.02
4487, Begonia, QLD,-27.51,148.32
4343, Adare, QLD,-27.51,152.3
4120, Greenslopes, QLD,-27.51,153.05
4103, Annerley, QLD,-27.51,153.03
4068, Chelmer, QLD,-27.51,152.98
4400, Kingsthorpe, QLD,-27.5,151.8
4159, Birkdale, QLD,-27.5,153.21
4153, Belmont, QLD,-27.5,153.13
4151, Coorparoo, QLD,-27.5,153.06
4102, Buranda, QLD,-27.5,153.04
4154, Gumdale, QLD,-27.49,153.15
4152, Camp Hill, QLD,-27.49,153.08
4101, Highgate Hill, QLD,-27.49,153.02
4069, Brookfield, QLD,-27.49,152.9
4067, St Lucia, QLD,-27.49,153.01
4169, East Brisbane, QLD,-27.48,153.05
4158, Thorneside, QLD,-27.48,153.2
4066, Auchenflower, QLD,-27.48,152.99
4179, Lota, QLD,-27.47,153.18
4173, Tingalpa, QLD,-27.47,153.13
4170, Cannon Hill, QLD,-27.47,153.1
4064, Milton, QLD,-27.47,153
4005, New Farm, QLD,-27.47,153.05
4000, Brisbane, QLD,-27.47,153.03
4172, Murarrie, QLD,-27.46,153.11
4171, Balmoral, QLD,-27.46,153.07
4065, Bardon, QLD,-27.46,152.98
6437, Leinster, WA,-27.45,120.55
4174, Hemmant, QLD,-27.45,153.13
4060, Ashgrove, QLD,-27.45,152.99
4059, Kelvin Grove, QLD,-27.45,153.01
4029, Royal Brisbane Hospital, QLD,-27.45,153.03
4061, The Gap, QLD,-27.44,152.94
4006, Bowen Hills, QLD,-27.44,153.04
4010, Albion, QLD,-27.43,153.05
4009, Eagle Farm, QLD,-27.43,153.09
4007, Ascot, QLD,-27.43,153.06
6640, Cue, WA,-27.42,117.9
4311, Atkinsons Dam, QLD,-27.42,152.46
4178, Lytton, QLD,-27.42,153.16
4051, Alderley, QLD,-27.42,153
4030, Lutwyche, QLD,-27.42,153.03
4011, Clayfield, QLD,-27.42,153.06
4008, Pinkenba, QLD,-27.42,153.12
4053, Brookside Centre, QLD,-27.41,152.98
4031, Gordon Park, QLD,-27.41,153.03
4183, Amity, QLD,-27.4,153.44
4054, Arana Hills, QLD,-27.4,152.96
4012, Nundah, QLD,-27.4,153.06
4032, Chermside, QLD,-27.39,153.03
4013, Northgate, QLD,-27.39,153.07
4014, Banyo, QLD,-27.38,153.08
4471, Claverton, QLD,-27.37,145.96
4055, Bunya, QLD,-27.37,152.94
4034, Aspley, QLD,-27.36,153.02
4035, Albany Creek, QLD,-27.35,152.97
4018, Fitzgibbon, QLD,-27.35,153.03
4037, Eatons Hill, QLD,-27.34,152.95
4017, Bracken Ridge, QLD,-27.33,153.03
6635, South Murchison, WA,-27.32,116.57
4354, Douglas, QLD,-27.32,151.91
5724, Marla, SA,-27.31,133.62
4404, Bowenville, QLD,-27.31,151.49
4036, Bald Hills, QLD,-27.31,153.01
4401, Acland, QLD,-27.3,151.69
4500, Bray Park, QLD,-27.29,152.96
4421, Goranba, QLD,-27.29,150.6
4501, Lawnton, QLD,-27.28,152.98
4502, Petrie, QLD,-27.27,152.98
4312, Bryden, QLD,-27.27,152.59
4353, Bergen, QLD,-27.26,151.9
4019, Clontarf, QLD,-27.26,153.08
4489, Wyandra, QLD,-27.25,145.98
4423, Glenmorgan, QLD,-27.25,149.68
4520, Armstrong Creek, QLD,-27.23,152.8
4509, Mango Hill, QLD,-27.23,153.02
4503, Dakabin, QLD,-27.23,152.98
4021, Kippa-Ring, QLD,-27.23,153.09
4020, Newport, QLD,-27.23,153.12
4403, Brymaroo, QLD,-27.22,151.59
4022, Rothwell, QLD,-27.21,153.05
4508, Deception Bay, QLD,-27.2,153.03
4504, Narangba, QLD,-27.19,152.93
4405, Blaxland, QLD,-27.19,151.4
4505, Burpengary, QLD,-27.17,152.95
4417, Noorindoo, QLD,-27.16,149.16
4313, Biarra, QLD,-27.16,152.33
4506, Moorina, QLD,-27.15,152.86
4510, Beachmere, QLD,-27.13,153.05
4355, Anduramba, QLD,-27.13,152.09
4455, Ballaroo, QLD,-27.12,148.62
4511, Godwin Beach, QLD,-27.08,153.11
4025, Bulwer, QLD,-27.08,153.37
4521, Campbells Pocket, QLD,-27.07,152.81
4507, Banksia Beach, QLD,-27.05,153.14
4516, Elimbah, QLD,-27.02,152.94
4512, Bracalba, QLD,-27.01,152.84
4416, Barramornie, QLD,-27.01,150.06
4402, Cooyar, QLD,-26.98,151.83
4465, Dunkeld, QLD,-26.97,148.06
4515, Glenfern, QLD,-26.96,152.61
4517, Beerburrum, QLD,-26.95,152.96
4411, Warra, QLD,-26.93,150.92
4408, Bell, QLD,-26.93,151.45
4518, Glass House Mountains, QLD,-26.9,152.96
4519, Beerwah, QLD,-26.86,152.96
4514, Bellthorpe, QLD,-26.85,152.72
4412, Brigalow, QLD,-26.84,150.79
4614, Neumgna, QLD,-26.82,151.9
4550, Landsborough, QLD,-26.81,152.96
4552, Bald Knob, QLD,-26.78,152.89
4551, Aroona, QLD,-26.78,153.11
4410, Jandowae, QLD,-26.78,151.11
4610, Alice Creek, QLD,-26.76,151.63
4553, Diamond Valley, QLD,-26.76,152.93
4575, Birtinya, QLD,-26.75,153.12
4554, Eudlo, QLD,-26.73,152.96
4413, Baking Board, QLD,-26.71,150.55
4555, Chevallum, QLD,-26.7,152.99
4556, Buderim, QLD,-26.69,153.05
4557, Mooloolaba, QLD,-26.68,153.12
4572, Alexandra Headland, QLD,-26.67,153.11
4480, Eromanga, QLD,-26.67,143.27
4415, Columboola, QLD,-26.67,150.33
4558, Cotton Tree, QLD,-26.66,153.1
4615, Barker Creek Flat, QLD,-26.65,151.95
4559, Diddillibah, QLD,-26.65,153.04
4479, Cooladdi, QLD,-26.65,145.46
4470, Bakers Bend, QLD,-26.65,146.18
4426, Jackson, QLD,-26.64,149.62
4424, Drillham, QLD,-26.64,149.98
4475, Cheepie, QLD,-26.63,145.02
4560, Bli Bli, QLD,-26.62,153.04
4574, Coolabine, QLD,-26.6,152.76
4461, Muckadilla, QLD,-26.6,148.36
4564, Marcoola, QLD,-26.58,153.1
4428, Pickanjinnie, QLD,-26.58,149.11
4462, Amby, QLD,-26.55,148.19
4573, Coolum Beach, QLD,-26.53,153.09
4561, Bridges, QLD,-26.53,152.93
4425, Bogandilla, QLD,-26.52,149.78
4562, Belli Park, QLD,-26.48,152.8
4467, Mungallala, QLD,-26.45,147.54
4567, Castaways Beach, QLD,-26.43,153.11
4563, Black Mountain, QLD,-26.42,152.85
4566, Noosaville, QLD,-26.4,153.06
4608, Charlestown, QLD,-26.37,151.94
4570, Amamoor, QLD,-26.35,152.67
6646, Lake Carnegie, WA,-26.34,122.26
4601, Barambah, QLD,-26.33,152.17
4569, Cooran, QLD,-26.33,152.82
4568, Federal, QLD,-26.33,152.86
4565, Boreen Point, QLD,-26.29,152.99
4418, Guluguba, QLD,-26.26,150.05
4606, Chelmsford, QLD,-26.25,151.81
4600, Black Snake, QLD,-26.22,152.27
4571, Como, QLD,-26.22,152.93
4605, Barlil, QLD,-26.2,151.89
4612, Hivesville, QLD,-26.18,151.69
4611, Marshlands, QLD,-26.16,151.75
4427, Clifford, QLD,-26.13,149.37
4613, Abbeywood, QLD,-26.11,151.63
4468, Clara Creek, QLD,-26.09,146.83
4580, Cooloola, QLD,-26.01,153.06
6537, Denham, WA,-25.93,113.53
4474, Adavale, QLD,-25.91,144.6
4482, Birdsville, QLD,-25.9,139.35
4626, Beeron, QLD,-25.81,151.21
4625, Aranbanga, QLD,-25.81,151.67
4477, Augathella, QLD,-25.79,146.59
4419, Cockatoo, QLD,-25.73,150.28
4454, Baffle West, QLD,-25.72,148.67
4620, Aramara, QLD,-25.61,152.33
4621, Biggenden, QLD,-25.51,152.05
4581, Eurong, QLD,-25.51,153.12
4420, Broadmere, QLD,-25.49,149.53
4478, Bayrick, QLD,-25.48,146.01
4650, Aldershot, QLD,-25.47,152.66
4481, Farrars Creek, QLD,-25.39,141.55
4662, Torbanlea, QLD,-25.35,152.6
4655, Booral, QLD,-25.35,152.89
4659, Beelbi Creek, QLD,-25.29,152.63
4660, Abington, QLD,-25.2,152.33
4627, Abercorn, QLD,-25.14,151.13
4671, Boolboonda, QLD,-25.08,151.68
4719, Camboon, QLD,-25.05,150.16
6701, Babbage Island, WA,-24.87,113.63
4003, George Street, QLD,-24.87,152.35
4670, Abbotsford, QLD,-24.84,152.02
4736, Jundah, QLD,-24.83,143.06
4630, Bancroft, QLD,-24.79,151.23
4673, Miara, QLD,-24.69,152.17
4676, Gindoran, QLD,-24.63,151.59
4716, Lawgi Dawes, QLD,-24.58,150.67
4718, Bauhinia, QLD,-24.57,149.3
4722, Buckland, QLD,-24.51,147.42
4674, Baffle Creek, QLD,-24.47,151.95
4472, Blackall, QLD,-24.42,145.47
4715, Biloela, QLD,-24.4,150.51
4702, Alberta, QLD,-24.33,149.78
4731, Isisford, QLD,-24.26,144.44
4678, Bororen, QLD,-24.24,151.5
6705, East Lyons River, WA,-24.23,117.38
4677, Agnes Water, QLD,-24.21,151.9
4713, Woorabinda, QLD,-24.11,149.43
6642, Angelo River, WA,-24.08,118.01
4004, Spring Hill, QLD,-24.05,149.32
4680, Barney Point, QLD,-23.86,151.27
4727, Ilfracombe, QLD,-23.85,144.47
4694, Aldoga, QLD,-23.84,151.07
4695, Ambrose, QLD,-23.79,150.93
4735, Diamantina Lakes, QLD,-23.76,141.14
4697, Raglan, QLD,-23.72,150.82
4712, Duaringa, QLD,-23.7,149.67
4724, Alpha, QLD,-23.65,146.64
4699, Bajool, QLD,-23.65,150.64
4714, Baree, QLD,-23.62,150.39
4717, Blackwater, QLD,-23.59,148.88
4725, Barcaldine, QLD,-23.55,145.29
4720, Emerald, QLD,-23.53,148.16
4829, Amaroo, QLD,-23.39,139.67
4700, Allenstown, QLD,-23.39,150.5
6753, Newman, WA,-23.36,119.74
4701, Berserker, QLD,-23.36,150.52
4721, Argyll, QLD,-23.28,147.56
4710, Emu Park, QLD,-23.26,150.83
4711, Glendale, QLD,-23.25,150.48
6754, Paraburdoo, WA,-23.17,117.75
4704, Wattlebank, QLD,-23.12,150.46
4703, Adelaide Park, QLD,-23.11,150.7
4730, Camoola, QLD,-23.04,144.53
4709, Tieri, QLD,-23.04,148.34
4723, Belcong, QLD,-23.01,148.23
4726, Aramac, QLD,-22.97,145.25
4705, Clarke Creek, QLD,-22.74,149.31
4728, Dunrobin, QLD,-22.69,146.15
4746, May Downs, QLD,-22.64,148.92
4745, Dysart, QLD,-22.59,148.35
4732, Muttaburra, QLD,-22.59,144.55
4706, Ogmore, QLD,-22.59,149.64
6707, Cape Range National Park, WA,-22.16,113.92
6710, Cane, WA,-22.1,115.86
4744, Moranbah, QLD,-22,148.05
6758, Nullagine, WA,-21.91,120.2
6751, Chichester, WA,-21.91,118.09
4739, Carmila, QLD,-21.91,149.42
4707, Collaroy, QLD,-21.87,149.14
6762, Telfer, WA,-21.71,122.23
4733, Corfield, QLD,-21.71,143.37
4738, Ilbilbie, QLD,-21.7,149.36
6716, Fortescue, WA,-21.65,116.13
4742, Burton, QLD,-21.54,148.08
4822, Albion, QLD,-21.51,142.69
6711, Thevenard Island, WA,-21.46,115
4737, Armstrong Beach, QLD,-21.45,149.29
4743, Glenden, QLD,-21.36,148.12
4751, Greenmount, QLD,-21.19,149.03
6760, Marble Bar, WA,-21.17,119.74
4757, Broken River, QLD,-21.17,148.51
4825, Alexandria, QLD,-21.16,149.1
4754, Benholme, QLD,-21.16,148.81
4740, Alexandra, QLD,-21.16,149.1
4756, Finch Hatton, QLD,-21.14,148.63
4753, Devereux Creek, QLD,-21.12,148.89
4750, Bucasia, QLD,-21.04,149.16
872, Aherrenge, NT,-21,134.38
4798, Calen, QLD,-20.9,148.77
4741, Ball Bay, QLD,-20.9,149
6712, Barrow Island, WA,-20.86,115.41
6721, Indee, WA,-20.79,118.6
6718, Roebourne, WA,-20.78,117.15
4799, Bloomsbury, QLD,-20.71,148.6
4824, Cloncurry, QLD,-20.7,140.51
6720, Cossack, WA,-20.68,117.19
6714, Antonymyre, WA,-20.66,117.09
6713, Dampier, WA,-20.66,116.71
4800, Andromache, QLD,-20.58,148.42
4804, Collinsville, QLD,-20.55,147.85
6722, Boodarie, WA,-20.4,118.57
4805, Binbee, QLD,-20.38,147.89
4803, Hamilton Island, QLD,-20.35,148.96
4821, Dutton River, QLD,-20.28,143.88
4802, Airlie Beach, QLD,-20.27,148.72
862, Avon Downs, NT,-20.23,137.76
4820, Alabama Hill, QLD,-20.08,146.25
4801, Hayman Island, QLD,-20.05,148.89
4828, Camooweal, QLD,-19.92,138.12
4806, Carstairs, QLD,-19.67,147.45
860, Tennant Creek, NT,-19.65,134.19
4808, Brandon, QLD,-19.55,147.35
4807, Airdmillan, QLD,-19.55,147.44
4809, Barratta, QLD,-19.53,147.21
4816, Alligator Creek, QLD,-19.42,146.95
4817, Alice River, QLD,-19.33,146.6
4815, Condon, QLD,-19.33,146.73
4811, Cluden, QLD,-19.32,146.82
4814, Aitkenvale, QLD,-19.3,146.76
4812, Currajong, QLD,-19.27,146.78
4155, Chandler, QLD,-19.26,146.78
4810, Belgian Gardens, QLD,-19.25,146.8
4818, Beach Holm, QLD,-19.2,146.66
4819, Arcadia, QLD,-19.15,146.86
861, Brunchilly, NT,-18.94,134.32
4850, Abergowrie, QLD,-18.47,145.89
4849, Cardwell, QLD,-18.27,146.03
6770, Halls Creek, WA,-18.22,127.67
6765, Fitzroy Crossing, WA,-18.19,125.57
4823, Carpentaria, QLD,-18.13,139.96
4854, Bilyana, QLD,-18.12,145.91
6728, Camballin, WA,-17.99,124.18
6726, Cable Beach, WA,-17.95,122.2
6725, Bilingurr, WA,-17.91,122.25
4852, Bingil Bay, QLD,-17.83,146.1
4855, Daveson, QLD,-17.79,146.02
4857, Silkwood East, QLD,-17.75,146.02
4830, Burketown, QLD,-17.74,139.55
4856, Goolboo, QLD,-17.72,146.03
4871, Abingdon Downs, QLD,-17.61,143.19
4859, No 6 Branch, QLD,-17.6,145.97
4858, Comoon Loop, QLD,-17.57,146.04
4860, Bamboo Creek, QLD,-17.56,146
4886, Beatrice, QLD,-17.54,145.61
4888, Evelyn, QLD,-17.5,145.49
4891, Karumba, QLD,-17.48,140.84
4887, Herberton, QLD,-17.38,145.39
4885, Butchers Creek, QLD,-17.36,145.69
4861, Babinda, QLD,-17.34,145.92
4890, Howitt, QLD,-17.28,141.63
4883, Atherton, QLD,-17.27,145.47
4872, Barrine, QLD,-17.23,145.62
4884, Gadgarra, QLD,-17.22,145.7
4882, Tolga, QLD,-17.19,145.46
4865, Goldsborough, QLD,-17.15,145.74
4880, Arriga, QLD,-17.11,145.3
4869, Bentley Park, QLD,-17,145.74
4868, Bayview Heights, QLD,-16.96,145.73
4870, Aeroglen, QLD,-16.88,145.75
4878, Barron, QLD,-16.84,145.71
4881, Koah, QLD,-16.82,145.51
854, Borroloola, NT,-16.82,137.15
4879, Clifton Beach, QLD,-16.77,145.67
4877, Craiglie, QLD,-16.54,145.47
4873, Bamboo, QLD,-16.37,145.38
6733, Koolan Island, WA,-16.13,123.74
6731, Cockatoo Island, WA,-16.09,123.61
4895, Ayton, QLD,-16.01,145.26
6743, Cambridge Gulf, WA,-15.17,128.55
852, Arnold, NT,-14.92,133.06
6740, Drysdale River, WA,-14.91,126.67
851, Katherine, NT,-14.46,132.26
850, Cossack, NT,-14.46,132.26
829, Holtze, NT,-14.46,132.28
847, Pine Creek, NT,-13.82,131.84
846, Adelaide River, NT,-13.23,131.1
845, Batchelor, NT,-13.04,131.07
841, Darwin River, NT,-12.8,130.96
822, Acacia Hills, NT,-12.8,131.13
801, Darwin, NT,-12.8,130.96
800, Darwin, NT,-12.8,130.96
840, Dundee Beach, NT,-12.72,130.35
838, Berry Springs, NT,-12.71,131
4874, Evans Landing, QLD,-12.66,141.85
836, Girraween, NT,-12.53,131.1
832, Bakewell, NT,-12.49,130.99
830, Archer, NT,-12.49,130.97
835, Coolalinga, NT,-12.48,131.03
831, Palmerston, NT,-12.48,130.98
828, Berrimah, NT,-12.47,130.91
837, Manton, NT,-12.46,130.84
871, Alice Springs, NT,-12.44,130.84
870, Alice Springs, NT,-12.44,130.84
907, Winnellie, NT,-12.43,130.88
906, Winnellie, NT,-12.43,130.88
821, Winnellie, NT,-12.43,130.88
810, Alawa, NT,-12.43,130.88
804, Parap, NT,-12.43,130.84
820, Bagot, NT,-12.41,130.86
812, Anula, NT,-12.4,130.91
886, Jabiru, NT,-12.38,130.89
880, Gapuwiyak, NT,-12.38,130.87
814, Nightcliff, NT,-12.38,130.85
811, Casuarina, NT,-12.38,130.85
881, Nhulunbuy, NT,-12.18,136.78
6799, Home Island Cocos (Keeling Islands, WA,-12.17,96.83
4876, Bamaga, QLD,-10.85,142.43
6798, Christmas Island, WA,-10.49,105.64
4875, Badu Island, QLD,-10.12,142.14
9729, Gold Coast MC, QLD,,
9728, Gold Coast MC, QLD,,
9726, Gold Coast MC, QLD,,
9464, Northgate MC, QLD,,
9023, Brisbane GPO Boxes, QLD,,
9022, Brisbane GPO Boxes, QLD,,
9021, Brisbane GPO Boxes, QLD,,
9019, Brisbane GPO Boxes, QLD,,
9018, Brisbane GPO Boxes, QLD,,
9017, Brisbane GPO Boxes, QLD,,
9016, Brisbane GPO Boxes, QLD,,
8012, Docklands, VIC,,
8008, St Kilda Road Central, VIC,,
8007, Collins Street West, VIC,,
8003, Collins Street East, VIC,,
7921, Burnie, TAS,,
7920, Burnie, TAS,,
7919, Burnie, TAS,,
7918, Burnie, TAS,,
7917, Burnie, TAS,,
7916, Burnie, TAS,,
7915, Burnie, TAS,,
7183, Highcroft, TAS,,
7174, Copping, TAS,,
7139, Strathgordon, TAS,,
6997, Kelmscott DC, WA,,
6991, Kelmscott, WA,,
6987, Cannington, WA,,
6986, Welshpool DC, WA,,
6983, Bentley DC, WA,,
6980, Cannington, WA,,
6970, Canning Vale DC, WA,,
6967, Rockingham DC, WA,,
6965, Bibra Lake DC, WA,,
6961, Palmyra DC, WA,,
6960, Myaree BC, WA,,
6958, Royal Australian Navy Warships, WA,,
6957, Palmyra, WA,,
6955, Willetton, WA,,
6954, Booragoon, WA,,
6953, Applecross, WA,,
6947, Wangara DC, WA,,
6945, Malaga DC, WA,,
6942, Bassendean DC, WA,,
6936, Midland DC, WA,,
6931, Maylands, WA,,
6925, Walliston DC, WA,,
6923, Hillarys, WA,,
6919, Joondalup DC, WA,,
6918, Innaloo, WA,,
6913, Wembley, WA,,
6909, Nedlands, WA,,
6907, Nedlands, WA,,
6905, Northlands Po, WA,,
6903, Leederville, WA,,
6902, Leederville, WA,,
6900, Leederville, WA,,
6865, Northbridge, WA,,
6849, Perth BC, WA,,
6803, Northbridge, WA,,
6625, Merkanooka, WA,,
6572, Piawaning, WA,,
6331, Albany DC, WA,,
6182, Keralup, WA,,
6181, Stake Hill, WA,,
6079, Lexia, WA,,
6078, Mariginiup, WA,,
6077, Gnangara, WA,,
5960, Garden Island, SA,,
5920, Adelaide Mail Centre, SA,,
5904, Adelaide Mail Centre, SA,,
5903, Adelaide Mail Centre, SA,,
5902, Adelaide Mail Centre, SA,,
5901, Adelaide Mail Centre, SA,,
5900, Adelaide Mail Centre, SA,,
5899, Adelaide Mail Centre, SA,,
5898, Adelaide Mail Centre, SA,,
5897, Adelaide Mail Centre, SA,,
5896, Adelaide Mail Centre, SA,,
5895, Adelaide Mail Centre, SA,,
5894, Adelaide Mail Centre, SA,,
5893, Adelaide Mail Centre, SA,,
5892, Adelaide Mail Centre, SA,,
5891, Adelaide Mail Centre, SA,,
5890, Adelaide Mail Centre, SA,,
5889, Adelaide Mail Centre, SA,,
5888, Adelaide Mail Centre, SA,,
5887, Adelaide Mail Centre, SA,,
5886, Adelaide Mail Centre, SA,,
5885, Adelaide Mail Centre, SA,,
5884, Adelaide Mail Centre, SA,,
5883, Adelaide Mail Centre, SA,,
5882, Adelaide Mail Centre, SA,,
5881, Adelaide Mail Centre, SA,,
5880, Adelaide Mail Centre, SA,,
5879, Adelaide Mail Centre, SA,,
5878, Adelaide Mail Centre, SA,,
5877, Adelaide Mail Centre, SA,,
5876, Adelaide Mail Centre, SA,,
5875, Adelaide Mail Centre, SA,,
5874, Adelaide Mail Centre, SA,,
5873, Adelaide Mail Centre, SA,,
5872, Adelaide Mail Centre, SA,,
5871, Adelaide Mail Centre, SA,,
5870, Adelaide Mail Centre, SA,,
5869, Adelaide Mail Centre, SA,,
5868, Adelaide Mail Centre, SA,,
5867, Adelaide Mail Centre, SA,,
5866, Adelaide Mail Centre, SA,,
5865, Adelaide Mail Centre, SA,,
5864, Adelaide Mail Centre, SA,,
5863, Adelaide Mail Centre, SA,,
5862, Adelaide Mail Centre, SA,,
5861, Adelaide Mail Centre, SA,,
5860, Adelaide Mail Centre, SA,,
5653, Yaninee, SA,,
5220, Parndana, SA,,
5151, Piccadilly, SA,,
5090, Hope Valley, SA,,
4813, Townsville Milpo, QLD,,
4222, Griffith University, QLD,,
4002, City East, QLD,,
3940, Rosebud West, VIC,,
3920, Hmas Cerberus, VIC,,
3841, Gippsland MC, VIC,,
3762, Bylands, VIC,,
3761, St Andrews, VIC,,
3698, Tawonga South, VIC,,
3662, Puckapunyal, VIC,,
3554, Bendigo DC, VIC,,
3477, Avon Plains, VIC,,
3433, Monegeetta, VIC,,
3374, Great Western, VIC,,
3176, Scoresby BC, VIC,,
3110, Nunawading BC, VIC,,
2901, Tuggeranong DC, ACT,,
2891, Sydney Gateway Facility, NSW,,
2890, Australian Defence Forces, NSW,,
2796, Bathurst MC, NSW,,
2708, Albury Msc, NSW,,
2610, Canberra BC, ACT,,
2442, Kempsey Msc, NSW,,
2348, New England MC, NSW,,
2310, Hunter Region MC, NSW,,
2252, Central Coast MC, NSW,,
2174, Edmondson Park, NSW,,
2091, Hmas Penguin, NSW,,
2058, Northern Suburbs MC, NSW,,
2004, Alexandria MC, NSW,,
1902, Leightonfield MC, NSW,,
1900, Leightonfield MC, NSW,,
1851, Wetherill Park DC, NSW,,
1826, Lidcombe, NSW,,
1825, Lidcombe, NSW,,
1797, Penrith South DC, NSW,,
1781, Seven Hills MC, NSW,,
1701, Rydalmere BC, NSW,,
1699, Northern Suburbs MC, NSW,,
1698, Northern Suburbs MC, NSW,,
1697, Northern Suburbs MC, NSW,,
1696, Northern Suburbs MC, NSW,,
1695, Northern Suburbs MC, NSW,,
1694, Northern Suburbs MC, NSW,,
1693, Northern Suburbs MC, NSW,,
1692, Northern Suburbs MC, NSW,,
1691, Northern Suburbs MC, NSW,,
1690, Northern Suburbs MC, NSW,,
1670, North Ryde BC, NSW,,
1635, Hornsby Westfield, NSW,,
1611, Lane Cove DC, NSW,,
1610, Lane Cove DC, NSW,,
1608, Lane Cove DC, NSW,,
1602, Lane Cove DC, NSW,,
1560, Northbridge, NSW,,
1487, Kogarah, NSW,,
1485, Kogarah, NSW,,
1484, Kingsgrove DC, NSW,,
1481, Hurstville BC, NSW,,
1419, Southern Suburbs MC, NSW,,
1416, Southern Suburbs MC, NSW,,
1391, Ato Activity Statements, NSW,,
1350, Woollahra, NSW,,
1334, Eastern Suburbs MC, NSW,,
1333, Eastern Suburbs MC, NSW,,
1332, Eastern Suburbs MC, NSW,,
1331, Eastern Suburbs MC, NSW,,
1330, Eastern Suburbs MC, NSW,,
1329, Eastern Suburbs MC, NSW,,
1328, Eastern Suburbs MC, NSW,,
1327, Eastern Suburbs MC, NSW,,
1326, Eastern Suburbs MC, NSW,,
1325, Eastern Suburbs MC, NSW,,
1324, Eastern Suburbs MC, NSW,,
1323, Eastern Suburbs MC, NSW,,
1322, Eastern Suburbs MC, NSW,,
1321, Eastern Suburbs MC, NSW,,
1320, Eastern Suburbs MC, NSW,,
1319, Eastern Suburbs MC, NSW,,
1318, Eastern Suburbs MC, NSW,,
1317, Eastern Suburbs MC, NSW,,
1316, Eastern Suburbs MC, NSW,,
1315, Eastern Suburbs MC, NSW,,
1314, Eastern Suburbs MC, NSW,,
1313, Eastern Suburbs MC, NSW,,
1312, Eastern Suburbs MC, NSW,,
1311, Eastern Suburbs MC, NSW,,
909, Charles Darwin University, NT,,
885, Alyangula, NT,,
853, Tindal, NT,,
815, Charles Darwin University, NT,,
813, Sanderson, NT,,
